{"type":"FeatureCollection","features":[{"type":"Feature","properties":{"id":"38663336-6265-3530-B063-666532646465","building_id":"1920f463-8319-4309-850f-925305b590af","height":null,"min_height":0},"geometry":{"type":"Polygon","coordinates":[[[-73.93738746643066,40.82170950649325],[-73.93749475479126,40.82170544698363],[-73.93765032291412,40.82177445861342],[-73.93779516220093,40.821575542544565],[-73.93695831298828,40.82122642310392],[-73.93679201602936,40.821457816426914],[-73.93738746643066,40.82170950649325]]]}},{"type":"Feature","properties":{"id":"33636533-3766-3166-A664-316533313166","building_id":"f6935353-554c-4884-b0a1-a5b7418d2b25","height":3.5,"min_height":0},"geometry":{"type":"Polygon","coordinates":[[[-73.94174873828888,40.82407209894055],[-73.94205451011658,40.82420199848991],[-73.9421135187149,40.824124870663155],[-73.94180238246918,40.82399497096276],[-73.94174873828888,40.82407209894055]]]}},{"type":"Feature","properties":{"id":"66656433-3761-3737-B133-363032373638","building_id":"f6935353-554c-4884-b0a1-a5b7418d2b25","height":7.6,"min_height":0},"geometry":{"type":"Polygon","coordinates":[[[-73.94205451011658,40.82420199848991],[-73.94176483154297,40.82407615830533],[-73.94170582294464,40.824153286188704],[-73.94200086593628,40.82427912622694],[-73.94205451011658,40.82420199848991]]]}},{"type":"Feature","properties":{"id":"63633936-6233-3932-B965-373737643730","building_id":"bec2189c-3fcc-4c7c-ba2c-066d193bd4e8","height":37.1,"min_height":0},"geometry":{"type":"Polygon","coordinates":[[[-73.9482182264328,40.813460070253626],[-73.94813776016235,40.81356563054294],[-73.94823968410492,40.81360623060948],[-73.94831478595734,40.813504730396545],[-73.94844353199005,40.813561570534944],[-73.94850254058838,40.81348443033531],[-73.94835770130157,40.81342353011436],[-73.94841134548187,40.81334638975423],[-73.94840598106384,40.81334638975423],[-73.94842743873596,40.813313909575754],[-73.94834160804749,40.813277369356],[-73.94826650619507,40.81338292993598],[-73.94813239574432,40.813326089644534],[-73.94807875156403,40.813399170010314],[-73.9482182264328,40.813460070253626]]]}},{"type":"Feature","properties":{"id":"63356665-6333-3931-A336-303961373939","building_id":"4f7a0229-b3fc-4ba2-b5ac-2741ed01db6c","height":4.7,"min_height":0},"geometry":{"type":"Polygon","coordinates":[[[-73.95560503005981,40.80488070528912],[-73.95557820796967,40.80466955690861],[-73.95555138587952,40.80471016241856],[-73.95556211471558,40.80474264680865],[-73.95550310611725,40.804823857714325],[-73.95537972450256,40.80477107063692],[-73.95534217357635,40.804819797171376],[-73.95557820796967,40.804917250132945],[-73.95560503005981,40.80488070528912]]]}},{"type":"Feature","properties":{"id":"65326139-6663-3766-A339-386333396233","building_id":"ee4b8f2c-f73a-4f75-9a2f-dc2c73f24165","height":null,"min_height":0},"geometry":{"type":"Polygon","coordinates":[[[-73.94734382629395,40.81152747527321],[-73.94738137722015,40.81147063339219],[-73.94732773303986,40.8114503327086],[-73.94729018211365,40.81150311447303],[-73.94734382629395,40.81152747527321]]]}},{"type":"Feature","properties":{"id":"61313439-3061-3737-B363-623835663536","building_id":"0f5d680c-3558-4b4a-8877-333db3a0e3dc","height":15,"min_height":0},"geometry":{"type":"Polygon","coordinates":[[[-73.95463407039642,40.80726419906776],[-73.95471453666687,40.80715862875317],[-73.95455360412598,40.80708960191819],[-73.95447850227356,40.8071992327402],[-73.95463407039642,40.80726419906776]]]}},{"type":"Feature","properties":{"id":"31316364-3062-3338-B633-346331363566","building_id":"fe2dc51f-7b15-406e-baec-97fd5a6b11c2","height":null,"min_height":0},"geometry":{"type":"Polygon","coordinates":[[[-73.94679129123688,40.81296068660828],[-73.9468663930893,40.812940386380575],[-73.9468502998352,40.81289978590655],[-73.94677519798279,40.812916026099145],[-73.94679129123688,40.81296068660828]]]}},{"type":"Feature","properties":{"id":"33343234-6536-3637-B034-633038653062","building_id":"68664145-86bc-4b5b-b74f-8911ac211329","height":43.2,"min_height":0},"geometry":{"type":"Polygon","coordinates":[[[-73.94766569137573,40.81095093393648],[-73.94759595394135,40.81104431773241],[-73.94770324230194,40.81108897950142],[-73.94779443740845,40.81096311443906],[-73.94788563251495,40.81099965593336],[-73.9478749036789,40.811011836426985],[-73.94792854785919,40.81103213724475],[-73.94798755645752,40.810954994104236],[-73.9478051662445,40.810881911046295],[-73.94783198833466,40.810849429661374],[-73.94785344600677,40.810857550009075],[-73.94791781902313,40.810772286308435],[-73.94781589508057,40.81072762432626],[-73.94773006439209,40.81084130931265],[-73.9476603269577,40.810808827907834],[-73.94770324230194,40.810747925231],[-73.94761741161346,40.81071138359803],[-73.9475154876709,40.81084536948714],[-73.94770860671997,40.810926572924615],[-73.94768714904785,40.81095905427176],[-73.94766569137573,40.81095093393648]]]}},{"type":"Feature","properties":{"id":"33616636-3931-3333-A637-313232323431","building_id":"29643622-1934-49bb-96f8-4fa9b93e8dcf","height":null,"min_height":0},"geometry":{"type":"Polygon","coordinates":[[[-73.94953787326813,40.81170612086794],[-73.94958078861237,40.81164927913997],[-73.94952714443207,40.81162897851104],[-73.94948959350586,40.811681760133354],[-73.94953787326813,40.81170612086794]]]}},{"type":"Feature","properties":{"id":"33333665-6461-3634-A139-616132316537","building_id":"df039de9-a07b-44d5-9ce9-b957ecb45474","height":null,"min_height":0},"geometry":{"type":"Polygon","coordinates":[[[-73.94799828529358,40.8103297253401],[-73.9480197429657,40.8103013038926],[-73.94796073436737,40.81027694264225],[-73.94796073436737,40.810285063060036],[-73.94788026809692,40.81025258138294],[-73.94785344600677,40.81028912326855],[-73.9479124546051,40.81031348451444],[-73.94792318344116,40.81029724368486],[-73.94799828529358,40.8103297253401]]]}},{"type":"Feature","properties":{"id":"30333338-6461-3533-B037-343237343332","building_id":"1e96bb7e-a7ee-474c-b6e2-a744f95905fc","height":22,"min_height":0},"geometry":{"type":"Polygon","coordinates":[[[-73.95460188388824,40.80730480299019],[-73.95458042621613,40.807337286110254],[-73.95474135875702,40.80740631268759],[-73.95476818084717,40.80737382960132],[-73.95460188388824,40.80730480299019]]]}},{"type":"Feature","properties":{"id":"39353634-3763-3530-B564-333935373137","building_id":"a3273351-1116-4292-8e20-494c9828c6cd","height":null,"min_height":0},"geometry":{"type":"Polygon","coordinates":[[[-73.9491355419159,40.81228671572896],[-73.9491730928421,40.81223393458791],[-73.94912481307983,40.812209574047074],[-73.9490818977356,40.812266415295056],[-73.9491355419159,40.81228671572896]]]}},{"type":"Feature","properties":{"id":"64346465-3230-3235-A662-376464343864","building_id":"29643622-1934-49bb-96f8-4fa9b93e8dcf","height":42.3,"min_height":0},"geometry":{"type":"Polygon","coordinates":[[[-73.94946813583374,40.81166551963864],[-73.94937694072723,40.811795443484925],[-73.9494788646698,40.81184010474834],[-73.94954860210419,40.811742661953076],[-73.9495325088501,40.81173454171366],[-73.94955396652222,40.811702060746114],[-73.94974172115326,40.81178326313517],[-73.94980072975159,40.811702060746114],[-73.94972562789917,40.81166957976268],[-73.94972026348114,40.81167770001002],[-73.94963443279266,40.81164521901468],[-73.94972026348114,40.81153153540569],[-73.94961833953857,40.81149093406955],[-73.94955396652222,40.811576196846744],[-73.94957542419434,40.81158431710551],[-73.94955396652222,40.8116167981307],[-73.9493715763092,40.81153965566992],[-73.9493179321289,40.8116167981307],[-73.94936621189117,40.81164115888913],[-73.94937694072723,40.81162897851104],[-73.94946813583374,40.81166551963864]]]}},{"type":"Feature","properties":{"id":"35383736-6438-3935-B566-303231646365","building_id":"12bd9601-a39b-4947-86e6-17d53e04372f","height":23.8,"min_height":0},"geometry":{"type":"Polygon","coordinates":[[[-73.95468235015869,40.80686221889519],[-73.95470917224884,40.80682567512238],[-73.95467698574066,40.80680943343913],[-73.95465016365051,40.80684597722086],[-73.95446240901947,40.80676882921361],[-73.95448923110962,40.80673228538939],[-73.95445704460144,40.806720104110155],[-73.95443022251129,40.80675258751643],[-73.95431756973267,40.80670792282871],[-73.95426392555237,40.80678101048386],[-73.95473599433899,40.80697997091508],[-73.95479500293732,40.80690688347906],[-73.95468235015869,40.80686221889519]]]}},{"type":"Feature","properties":{"id":"39326162-6133-3339-B063-373232383334","building_id":"12bd9601-a39b-4947-86e6-17d53e04372f","height":22,"min_height":0},"geometry":{"type":"Polygon","coordinates":[[[-73.95446240901947,40.807219534724396],[-73.95453751087189,40.807113964338726],[-73.9543068408966,40.80701651460291],[-73.95422637462616,40.80712208514359],[-73.95446240901947,40.807219534724396]]]}},{"type":"Feature","properties":{"id":"63353566-3565-3464-A131-346130303339","building_id":"12bd9601-a39b-4947-86e6-17d53e04372f","height":19,"min_height":0},"geometry":{"type":"Polygon","coordinates":[[[-73.95479500293732,40.80690688347906],[-73.9548271894455,40.806858158476984],[-73.95435512065887,40.806659197680546],[-73.95431756973267,40.80670792282871],[-73.95443022251129,40.80675258751643],[-73.95445704460144,40.806720104110155],[-73.95448923110962,40.80673228538939],[-73.95446240901947,40.80676882921361],[-73.95465016365051,40.80684597722086],[-73.95467698574066,40.80680943343913],[-73.95470917224884,40.80682567512238],[-73.95468235015869,40.80686221889519],[-73.95479500293732,40.80690688347906]]]}},{"type":"Feature","properties":{"id":"38613363-6636-3934-B533-373332346563","building_id":"65eedbeb-3fd2-4f4a-8126-1589b7e901f3","height":null,"min_height":0},"geometry":{"type":"Polygon","coordinates":[[[-73.94624948501587,40.81263182215497],[-73.94632995128632,40.81261964195875],[-73.94631922245026,40.81257498122005],[-73.94623875617981,40.81258716142449],[-73.94624948501587,40.81263182215497]]]}},{"type":"Feature","properties":{"id":"33303538-3265-3136-A334-393330393961","building_id":"723883e8-9cfb-4a25-bd0c-ab08a22a8b33","height":37.4,"min_height":0},"geometry":{"type":"Polygon","coordinates":[[[-73.94719898700714,40.81246535927946],[-73.94716680049896,40.812514080164334],[-73.94729554653168,40.8125668610825],[-73.94732773303986,40.81252220030831],[-73.9473170042038,40.81251814023645],[-73.9473706483841,40.81244911897659],[-73.9474618434906,40.81248565965251],[-73.94745647907257,40.81249377979998],[-73.9475154876709,40.81251814023645],[-73.94758522510529,40.81242069843694],[-73.94753158092499,40.812396337964685],[-73.94752085208893,40.8124044581231],[-73.94742965698242,40.81236791740244],[-73.94748330116272,40.812294835900786],[-73.94749402999878,40.812298895986316],[-73.94752085208893,40.81225423503173],[-73.94739210605621,40.812201453864816],[-73.94736528396606,40.81224611485496],[-73.9473706483841,40.81225017494344],[-73.94732236862183,40.81231919641027],[-73.94722580909729,40.81228265564266],[-73.94723117351532,40.812274535469385],[-73.94717752933502,40.81225017494344],[-73.94710779190063,40.81234761699338],[-73.94716143608093,40.81237197748354],[-73.94716680049896,40.812363857321145],[-73.9472633600235,40.8124044581231],[-73.94721508026123,40.81247347942943],[-73.94719898700714,40.81246535927946]]]}},{"type":"Feature","properties":{"id":"39336536-6131-3332-B362-356466623231","building_id":"3ebc13b3-766f-4dca-9436-5345fc736e8b","height":37.7,"min_height":0},"geometry":{"type":"Polygon","coordinates":[[[-73.94864201545715,40.81285918540769],[-73.94856691360474,40.81296068660828],[-73.9486688375473,40.81300128704501],[-73.94874393939972,40.8128957258578],[-73.94884586334229,40.812936326334295],[-73.94885122776031,40.81293226628776],[-73.94889414310455,40.812948506472395],[-73.94894242286682,40.81287948566023],[-73.94880294799805,40.81282264493751],[-73.94887804985046,40.81272114352575],[-73.9487761259079,40.812680542917576],[-73.94870102405548,40.81278204439141],[-73.9485615491867,40.81272520358522],[-73.94850790500641,40.812802344667574],[-73.94864201545715,40.81285918540769]]]}},{"type":"Feature","properties":{"id":"38653639-3132-3239-B939-623833633932","building_id":"0f5d680c-3558-4b4a-8877-333db3a0e3dc","height":9,"min_height":0},"geometry":{"type":"Polygon","coordinates":[[[-73.95471453666687,40.80715862875317],[-73.95475208759308,40.80710178312958],[-73.95459651947021,40.807032756235486],[-73.95455360412598,40.80708960191819],[-73.95471453666687,40.80715862875317]]]}},{"type":"Feature","properties":{"id":"66373731-6536-3131-A337-636136376438","building_id":"df039de9-a07b-44d5-9ce9-b957ecb45474","height":null,"min_height":0},"geometry":{"type":"Polygon","coordinates":[[[-73.94806802272797,40.81041904980998],[-73.94782662391663,40.810317544721215],[-73.94779980182648,40.81035002636651],[-73.94804656505585,40.81045153140559],[-73.94806802272797,40.81041904980998]]]}},{"type":"Feature","properties":{"id":"36343731-6239-3632-A335-323131363837","building_id":"536a4b3a-e868-471f-ae9f-656c869a0cda","height":null,"min_height":0},"geometry":{"type":"Polygon","coordinates":[[[-73.94804656505585,40.81182386429239],[-73.94808411598206,40.81177108278314],[-73.94803047180176,40.8117467220724],[-73.94799292087555,40.811803563716865],[-73.94804656505585,40.81182386429239]]]}},{"type":"Feature","properties":{"id":"35303164-3261-3236-B765-636564383666","building_id":"0f5d680c-3558-4b4a-8877-333db3a0e3dc","height":5,"min_height":0},"geometry":{"type":"Polygon","coordinates":[[[-73.95475208759308,40.80710178312958],[-73.95477890968323,40.80706929989424],[-73.95469844341278,40.807032756235486],[-73.95467698574066,40.80706523948871],[-73.95475208759308,40.80710178312958]]]}},{"type":"Feature","properties":{"id":"30316431-6139-3962-A239-656166386335","building_id":"68664145-86bc-4b5b-b74f-8911ac211329","height":null,"min_height":0},"geometry":{"type":"Polygon","coordinates":[[[-73.94777297973633,40.81095905427176],[-73.94781589508057,40.810902211903795],[-73.94776225090027,40.810881911046295],[-73.94772469997406,40.81093875343166],[-73.94777297973633,40.81095905427176]]]}},{"type":"Feature","properties":{"id":"66373064-6639-3461-B064-616535363432","building_id":"12bd9601-a39b-4947-86e6-17d53e04372f","height":18,"min_height":0},"geometry":{"type":"Polygon","coordinates":[[[-73.95442485809326,40.807272319854206],[-73.95446240901947,40.807219534724396],[-73.95422637462616,40.80712208514359],[-73.95418882369995,40.807170809951884],[-73.95442485809326,40.807272319854206]]]}},{"type":"Feature","properties":{"id":"30336564-3434-3061-A564-656465373430","building_id":"ee4b8f2c-f73a-4f75-9a2f-dc2c73f24165","height":43.1,"min_height":0},"geometry":{"type":"Polygon","coordinates":[[[-73.94724726676941,40.81150717460699],[-73.94716680049896,40.8116167981307],[-73.9472633600235,40.81165739938979],[-73.94732773303986,40.81157213671696],[-73.94730627536774,40.811564016456714],[-73.94732773303986,40.81153153540569],[-73.94751012325287,40.81160867787591],[-73.94756376743317,40.81153153540569],[-73.9475154876709,40.81150717460699],[-73.94750475883484,40.811519355007476],[-73.94741356372833,40.81148281379936],[-73.94751012325287,40.811352889340895],[-73.94740283489227,40.81130822774955],[-73.94733309745789,40.811405671182825],[-73.94734919071198,40.811413791462485],[-73.94732773303986,40.811446272571146],[-73.94713997840881,40.81136506976969],[-73.94708096981049,40.811446272571146],[-73.94724726676941,40.81150717460699]]]}},{"type":"Feature","properties":{"id":"64326437-3861-3535-A630-363462623033","building_id":"f4bddd2f-e661-4137-907d-dbb4b51c06bb","height":null,"min_height":0},"geometry":{"type":"Polygon","coordinates":[[[-73.9476066827774,40.8132408291161],[-73.9476227760315,40.81330172950476],[-73.94768178462982,40.81328954943149],[-73.9476603269577,40.81323270906006],[-73.9476066827774,40.8132408291161]]]}},{"type":"Feature","properties":{"id":"34656231-6137-3134-A239-363131376535","building_id":"df039de9-a07b-44d5-9ce9-b957ecb45474","height":null,"min_height":0},"geometry":{"type":"Polygon","coordinates":[[[-73.94815921783447,40.81029724368486],[-73.94808411598206,40.81026882222346],[-73.94814848899841,40.810183557766294],[-73.94806265830994,40.81015107603949],[-73.9479660987854,40.81028100285124],[-73.94812166690826,40.81034596616172],[-73.94815921783447,40.81029724368486]]]}},{"type":"Feature","properties":{"id":"62316639-6239-3736-B236-303563636337","building_id":"bec2189c-3fcc-4c7c-ba2c-066d193bd4e8","height":null,"min_height":0},"geometry":{"type":"Polygon","coordinates":[[[-73.94825041294098,40.81342353011436],[-73.9482718706131,40.81348037032231],[-73.9483255147934,40.813472250295575],[-73.9483094215393,40.81341135006346],[-73.94825041294098,40.81342353011436]]]}},{"type":"Feature","properties":{"id":"61666432-6363-3966-A536-343439643435","building_id":"6b0d4daf-95de-4e9f-994c-1d4dbab9f118","height":null,"min_height":0},"geometry":{"type":"Polygon","coordinates":[[[-73.94896388053894,40.811373190054326],[-73.94900679588318,40.81132040818653],[-73.94895315170288,40.81129604731032],[-73.94891560077667,40.811352889340895],[-73.94896388053894,40.811373190054326]]]}},{"type":"Feature","properties":{"id":"36656463-6335-3239-A537-363038383762","building_id":"df039de9-a07b-44d5-9ce9-b957ecb45474","height":null,"min_height":0},"geometry":{"type":"Polygon","coordinates":[[[-73.94790172576904,40.81017137712061],[-73.94792318344116,40.81014295560533],[-73.94788026809692,40.810126714734],[-73.9478588104248,40.81015513625624],[-73.94790172576904,40.81017137712061]]]}},{"type":"Feature","properties":{"id":"33363864-3030-3134-B831-626435343862","building_id":"ff8d1408-930b-4008-a24b-0acde5619b6a","height":42.6,"min_height":0},"geometry":{"type":"Polygon","coordinates":[[[-73.94833624362946,40.8111417615533],[-73.94826650619507,40.81123920523103],[-73.94836843013763,40.81128386686888],[-73.94846498966217,40.8111580021762],[-73.9485239982605,40.8111783029492],[-73.94851326942444,40.811194543563175],[-73.9485615491867,40.81121078417314],[-73.948615193367,40.81113364124033],[-73.94847571849823,40.81107679902195],[-73.94850254058838,40.81104431773241],[-73.94851863384247,40.811052438056294],[-73.94858300685883,40.81096311443906],[-73.94848644733429,40.8109225127551],[-73.94840061664581,40.81103619740753],[-73.94832015037537,40.81099965593336],[-73.9483255147934,40.81099153560302],[-73.94825041294098,40.81096311443906],[-73.94819140434265,40.81104025757011],[-73.9483791589737,40.81112146076907],[-73.94835770130157,40.81114988186522],[-73.94833624362946,40.8111417615533]]]}},{"type":"Feature","properties":{"id":"38646266-6138-3431-B734-343931333635","building_id":"536a4b3a-e868-471f-ae9f-656c869a0cda","height":null,"min_height":0},"geometry":{"type":"Polygon","coordinates":[[[-73.94818067550659,40.81185228508767],[-73.94818603992462,40.81187664575967],[-73.94823431968689,40.81189694631283],[-73.94826650619507,40.811892886202685],[-73.94827723503113,40.81186852553668],[-73.9482718706131,40.811848224974824],[-73.9482182264328,40.81182386429239],[-73.94819676876068,40.811831984520865],[-73.94818067550659,40.81185228508767]]]}},{"type":"Feature","properties":{"id":"37346565-6437-3938-B935-316533333661","building_id":"12bd9601-a39b-4947-86e6-17d53e04372f","height":4,"min_height":0},"geometry":{"type":"Polygon","coordinates":[[[-73.95439803600311,40.80705305827058],[-73.95444095134735,40.80699621255661],[-73.95447313785553,40.80701245419411],[-73.95455360412598,40.80690282306358],[-73.95451068878174,40.8068865813992],[-73.95445704460144,40.80695966885759],[-73.95441949367523,40.80694342720713],[-73.95435512065887,40.807032756235486],[-73.95439803600311,40.80705305827058]]]}},{"type":"Feature","properties":{"id":"62353234-6639-3561-B932-343133333030","building_id":"38387f3e-1b3c-4399-9c3b-35bf7cddc712","height":null,"min_height":0},"geometry":{"type":"Polygon","coordinates":[[[-73.94585251808167,40.80196923473707],[-73.94589006900787,40.80192456683008],[-73.94586861133575,40.801916445389224],[-73.94592761993408,40.801835230925974],[-73.94599735736847,40.801863655999426],[-73.94622802734375,40.8015469187788],[-73.94607245922089,40.80148194685441],[-73.94572377204895,40.80196517401947],[-73.94579887390137,40.8019935990373],[-73.94585251808167,40.80196923473707]]]}},{"type":"Feature","properties":{"id":"35623239-3939-3336-B434-373362613365","building_id":"6b0d4daf-95de-4e9f-994c-1d4dbab9f118","height":42.5,"min_height":0},"geometry":{"type":"Polygon","coordinates":[[[-73.94889950752258,40.81133664876569],[-73.94880294799805,40.811466573255984],[-73.94890487194061,40.81150717460699],[-73.948974609375,40.811413791462485],[-73.94895851612091,40.811405671182825],[-73.94897997379303,40.811377250196216],[-73.94916772842407,40.8114543928458],[-73.9492267370224,40.811373190054326],[-73.94915163516998,40.81134070890988],[-73.94914627075195,40.81134882919747],[-73.94906044006348,40.81131228789545],[-73.94914627075195,40.81120266386864],[-73.94904434680939,40.8111580021762],[-73.94897997379303,40.81124732553107],[-73.94900143146515,40.811255445830085],[-73.94897997379303,40.81128792701625],[-73.94884049892426,40.81123108493003],[-73.94878149032593,40.81130822774955],[-73.9488297700882,40.81132446833169],[-73.94884049892426,40.81131228789545],[-73.94889950752258,40.81133664876569]]]}},{"type":"Feature","properties":{"id":"66376234-3636-3339-B365-653163326631","building_id":"fe2dc51f-7b15-406e-baec-97fd5a6b11c2","height":37.4,"min_height":0},"geometry":{"type":"Polygon","coordinates":[[[-73.94673764705658,40.812936326334295],[-73.94666254520416,40.813041887456905],[-73.94676983356476,40.81308248784396],[-73.94684493541718,40.81298098682973],[-73.94697904586792,40.81303782741685],[-73.94703805446625,40.81295662656322],[-73.9469039440155,40.81289978590655],[-73.94697904586792,40.81279828461285],[-73.94689321517944,40.81276174410908],[-73.9468663930893,40.81279422455785],[-73.94686102867126,40.812790164502644],[-73.94680202007294,40.812867305509485],[-73.94665718078613,40.81280640472204],[-73.94660353660583,40.81288354571001],[-73.94673764705658,40.812936326334295]]]}},{"type":"Feature","properties":{"id":"65636139-3362-3833-A661-663830376162","building_id":"1e96bb7e-a7ee-474c-b6e2-a744f95905fc","height":18,"min_height":0},"geometry":{"type":"Polygon","coordinates":[[[-73.95495057106018,40.80736570882726],[-73.95496666431427,40.80734134649916],[-73.95496129989624,40.807337286110254],[-73.95504176616669,40.80722359512046],[-73.95512759685516,40.807109903935924],[-73.95513832569122,40.807113964338726],[-73.95515441894531,40.807085541513885],[-73.95512223243713,40.80707336029954],[-73.954918384552,40.80735352766433],[-73.95495057106018,40.80736570882726]]]}},{"type":"Feature","properties":{"id":"64643539-3763-3639-B831-313962336161","building_id":"1e96bb7e-a7ee-474c-b6e2-a744f95905fc","height":31,"min_height":0},"geometry":{"type":"Polygon","coordinates":[[[-73.95496129989624,40.807252017886185],[-73.95498275756836,40.80722765551633],[-73.95492911338806,40.80720735353461],[-73.95496129989624,40.80716268915299],[-73.95488619804382,40.80713020594746],[-73.95483791828156,40.8071992327402],[-73.95496129989624,40.807252017886185]]]}},{"type":"Feature","properties":{"id":"32326563-6666-3633-A530-366361326661","building_id":"38387f3e-1b3c-4399-9c3b-35bf7cddc712","height":54.6,"min_height":0},"geometry":{"type":"Polygon","coordinates":[[[-73.94632458686829,40.80198141688831],[-73.94630312919617,40.80196923473707],[-73.9463460445404,40.801916445389224],[-73.94612610340118,40.801823048747906],[-73.94608318805695,40.80188395961585],[-73.946093916893,40.801888020338396],[-73.94608318805695,40.80190020250453],[-73.94592761993408,40.801835230925974],[-73.94586861133575,40.801916445389224],[-73.94589006900787,40.80192456683008],[-73.94585251808167,40.80196923473707],[-73.94607245922089,40.8020626311727],[-73.94611537456512,40.80200172046872],[-73.94610464572906,40.80200172046872],[-73.94611537456512,40.80198547760489],[-73.94627630710602,40.80205450974873],[-73.94632458686829,40.80198141688831]]]}},{"type":"Feature","properties":{"id":"38326339-3234-3364-B538-343364383533","building_id":"536a4b3a-e868-471f-ae9f-656c869a0cda","height":52.8,"min_height":0},"geometry":{"type":"Polygon","coordinates":[[[-73.94834160804749,40.811961908041184],[-73.94825577735901,40.81207965101174],[-73.94835770130157,40.81212025198761],[-73.94842207431793,40.81203092980789],[-73.94840061664581,40.812022809603775],[-73.94842207431793,40.81199032877737],[-73.94860982894897,40.81206747071411],[-73.94866347312927,40.811994388881516],[-73.94858837127686,40.811961908041184],[-73.9485776424408,40.81197408835817],[-73.94850254058838,40.81194160750789],[-73.9485239982605,40.81190912664175],[-73.94854009151459,40.8119131867509],[-73.94860982894897,40.811815744062926],[-73.94850790500641,40.81177108278314],[-73.94845962524414,40.8118441648617],[-73.9484703540802,40.811848224974824],[-73.94842743873596,40.81190100642269],[-73.94808948040009,40.81176296254719],[-73.94818603992462,40.811637098763356],[-73.94808411598206,40.811592437363316],[-73.94800901412964,40.81168988037922],[-73.9480197429657,40.81169800062409],[-73.94799828529358,40.8117304815936],[-73.94791781902313,40.81169800062409],[-73.94792854785919,40.811681760133354],[-73.94785344600677,40.81164927913997],[-73.94779980182648,40.81172642147328],[-73.94798755645752,40.811807623832465],[-73.94796073436737,40.81183604463473],[-73.94793927669525,40.81182792440674],[-73.9478749036789,40.811917246859764],[-73.94797682762146,40.81195784793502],[-73.94806265830994,40.8118441648617],[-73.94834160804749,40.811961908041184]]]}},{"type":"Feature","properties":{"id":"66313431-6635-3034-B538-316435313137","building_id":"df039de9-a07b-44d5-9ce9-b957ecb45474","height":null,"min_height":0},"geometry":{"type":"Polygon","coordinates":[[[-73.94792318344116,40.81018761798103],[-73.94800901412964,40.81022009968993],[-73.94804120063782,40.81017949755133],[-73.94795536994934,40.81014295560533],[-73.94792318344116,40.81018761798103]]]}},{"type":"Feature","properties":{"id":"33363039-3363-3434-B566-363635373530","building_id":"f4bddd2f-e661-4137-907d-dbb4b51c06bb","height":36.8,"min_height":0},"geometry":{"type":"Polygon","coordinates":[[[-73.94756376743317,40.81328142938139],[-73.94748866558075,40.81338698995495],[-73.94759058952332,40.81342759013083],[-73.9476603269577,40.813326089644534],[-73.94779443740845,40.81338292993598],[-73.94784808158875,40.81330578952864],[-73.94770324230194,40.81324894917114],[-73.94776225090027,40.81316774857589],[-73.94775688648224,40.81316774857589],[-73.94777834415436,40.81313526830999],[-73.94769251346588,40.81309872799184],[-73.94761741161346,40.81320428885607],[-73.94747793674469,40.81314744841157],[-73.94742429256439,40.813220528974114],[-73.94756376743317,40.81328142938139]]]}},{"type":"Feature","properties":{"id":"61666132-3232-3532-B138-386530313266","building_id":"723883e8-9cfb-4a25-bd0c-ab08a22a8b33","height":null,"min_height":0},"geometry":{"type":"Polygon","coordinates":[[[-73.94730627536774,40.812359797239594],[-73.94732773303986,40.81242069843694],[-73.94738674163818,40.81240851820192],[-73.94736528396606,40.812351677075696],[-73.94730627536774,40.812359797239594]]]}},{"type":"Feature","properties":{"id":"32623335-6430-3231-B565-386636363062","building_id":"1e96bb7e-a7ee-474c-b6e2-a744f95905fc","height":22,"min_height":6},"geometry":{"type":"Polygon","coordinates":[[[-73.95480036735535,40.80689876264785],[-73.95475745201111,40.806951548032856],[-73.95483791828156,40.80698403132584],[-73.9548808336258,40.806931245966666],[-73.95480036735535,40.80689876264785]]]}},{"type":"Feature","properties":{"id":"61316439-6235-3430-B136-613634313162","building_id":"df039de9-a07b-44d5-9ce9-b957ecb45474","height":null,"min_height":0},"geometry":{"type":"Polygon","coordinates":[[[-73.94767642021179,40.81029724368486],[-73.94779980182648,40.81035002636651],[-73.94782662391663,40.810317544721215],[-73.94806802272797,40.81041904980998],[-73.94812166690826,40.81034596616172],[-73.9479660987854,40.81028100285124],[-73.94806265830994,40.81015107603949],[-73.94788026809692,40.81007393187468],[-73.94778370857239,40.81021197926418],[-73.94775152206421,40.81019573840976],[-73.94767642021179,40.81029724368486]]]}},{"type":"Feature","properties":{"id":"61336262-6362-3665-B136-396635373733","building_id":"1e96bb7e-a7ee-474c-b6e2-a744f95905fc","height":22,"min_height":0},"geometry":{"type":"Polygon","coordinates":[[[-73.9551705121994,40.80695966885759],[-73.95509541034698,40.80706117908292],[-73.95515441894531,40.807085541513885],[-73.95522952079773,40.80698403132584],[-73.9551705121994,40.80695966885759]]]}},{"type":"Feature","properties":{"id":"65623534-3066-3262-A461-356134393966","building_id":"df039de9-a07b-44d5-9ce9-b957ecb45474","height":null,"min_height":0},"geometry":{"type":"Polygon","coordinates":[[[-73.94778370857239,40.81021197926418],[-73.94788026809692,40.81007393187468],[-73.94784808158875,40.81006175120885],[-73.94775152206421,40.81019573840976],[-73.94778370857239,40.81021197926418]]]}},{"type":"Feature","properties":{"id":"33373564-3264-3365-B562-656631633065","building_id":"67ba059d-c450-4037-bee4-fc0c196b8913","height":null,"min_height":0},"geometry":{"type":"Polygon","coordinates":[[[-73.94859373569489,40.81251814023645],[-73.94792854785919,40.81223799467719],[-73.94789636135101,40.812274535469385],[-73.9478588104248,40.81225829511976],[-73.94784271717072,40.81225829511976],[-73.94783198833466,40.812274535469385],[-73.94779443740845,40.81225829511976],[-73.94769787788391,40.812392277885124],[-73.94779443740845,40.81243287866971],[-73.94781053066254,40.812412578280515],[-73.94817531108856,40.81257498122005],[-73.94815921783447,40.81260340169362],[-73.94811630249023,40.81261152182665],[-73.94812166690826,40.812684602979516],[-73.94838988780975,40.812680542917576],[-73.94843280315399,40.81270084322475],[-73.94846498966217,40.81265618254076],[-73.94848644733429,40.81266430266734],[-73.94859373569489,40.81251814023645]]]}},{"type":"Feature","properties":{"id":"35633366-3562-3631-A232-313034633132","building_id":"ff8d1408-930b-4008-a24b-0acde5619b6a","height":null,"min_height":0},"geometry":{"type":"Polygon","coordinates":[[[-73.94844353199005,40.81114988186522],[-73.94848108291626,40.81109709981982],[-73.94842743873596,40.81107679902195],[-73.94838988780975,40.81112958108349],[-73.94844353199005,40.81114988186522]]]}},{"type":"Feature","properties":{"id":"63316535-3963-3166-A463-396332656238","building_id":"a3273351-1116-4292-8e20-494c9828c6cd","height":42.4,"min_height":0},"geometry":{"type":"Polygon","coordinates":[[[-73.94903361797333,40.812290775815],[-73.94896924495697,40.812380097644905],[-73.9490658044815,40.81242069843694],[-73.94915163516998,40.81230701615664],[-73.94930720329285,40.812380097644905],[-73.94936621189117,40.81230295607162],[-73.9491730928421,40.812221754318614],[-73.94919455051422,40.81218927358958],[-73.94921600818634,40.81219739377332],[-73.9492803812027,40.81210807169745],[-73.94917845726013,40.81206747071411],[-73.94914090633392,40.81211213179441],[-73.94911408424377,40.81209995150277],[-73.94909799098969,40.81212431208385],[-73.94912481307983,40.812136492371025],[-73.94908726215363,40.81218927358958],[-73.94899606704712,40.81214867265595],[-73.94900143146515,40.812136492371025],[-73.94895315170288,40.812116191891135],[-73.94889950752258,40.81219333368159],[-73.94907653331757,40.812266415295056],[-73.94905507564545,40.812298895986316],[-73.94903361797333,40.812290775815]]]}},{"type":"Feature","properties":{"id":"37373364-6364-3464-B665-376162663263","building_id":"65eedbeb-3fd2-4f4a-8126-1589b7e901f3","height":37.1,"min_height":0},"geometry":{"type":"Polygon","coordinates":[[[-73.94612073898315,40.812713023406104],[-73.94622266292572,40.81275768405186],[-73.94630312919617,40.81265212247706],[-73.94643723964691,40.812713023406104],[-73.94649624824524,40.81263182215497],[-73.9463621377945,40.81257498122005],[-73.94643723964691,40.81247347942943],[-73.94635140895844,40.8124369387468],[-73.94632458686829,40.81246535927946],[-73.94631922245026,40.8124612992041],[-73.94626021385193,40.81254250066394],[-73.94611537456512,40.812481599578405],[-73.94606173038483,40.81255468087434],[-73.94619584083557,40.81261152182665],[-73.94612073898315,40.812713023406104]]]}},{"type":"Feature","properties":{"id":"34656436-6336-3363-B732-376131323532","building_id":"4f7a0229-b3fc-4ba2-b5ac-2741ed01db6c","height":4.7,"min_height":0},"geometry":{"type":"Polygon","coordinates":[[[-73.95557820796967,40.80466955690861],[-73.95560503005981,40.80488070528912],[-73.95571768283844,40.80472640461559],[-73.95557820796967,40.80466955690861]]]}},{"type":"Feature","properties":{"id":"39393332-3436-3637-A138-303465303063","building_id":"1e96bb7e-a7ee-474c-b6e2-a744f95905fc","height":33.4,"min_height":0},"geometry":{"type":"Polygon","coordinates":[[[-73.95501494407654,40.807178930749785],[-73.95496666431427,40.80715862875317],[-73.95492911338806,40.80720735353461],[-73.95498275756836,40.80722765551633],[-73.95501494407654,40.807178930749785]]]}},{"type":"Feature","properties":{"id":"63343262-6435-3635-B861-323031383234","building_id":"3ebc13b3-766f-4dca-9436-5345fc736e8b","height":null,"min_height":0},"geometry":{"type":"Polygon","coordinates":[[[-73.94869565963745,40.81287542561023],[-73.94877076148987,40.81285918540769],[-73.94876003265381,40.81281452483026],[-73.94867956638336,40.812830765043714],[-73.94869565963745,40.81287542561023]]]}},{"type":"Feature","properties":{"id":"38633032-3564-3230-A564-623766646266","building_id":"0f5d680c-3558-4b4a-8877-333db3a0e3dc","height":16.8,"min_height":0},"geometry":{"type":"Polygon","coordinates":[[[-73.9545750617981,40.80734134649916],[-73.95463407039642,40.80726419906776],[-73.95447850227356,40.8071992327402],[-73.95441949367523,40.80727638024709],[-73.9545750617981,40.80734134649916]]]}},{"type":"Feature","properties":{"id":"31616334-3933-3266-B239-613036303666","building_id":"536a4b3a-e868-471f-ae9f-656c869a0cda","height":null,"min_height":0},"geometry":{"type":"Polygon","coordinates":[[[-73.94843816757202,40.81198626867294],[-73.94847571849823,40.81193348729286],[-73.94842207431793,40.8119131867509],[-73.94838452339172,40.81196596814709],[-73.94843816757202,40.81198626867294]]]}},{"type":"Feature","properties":{"id":"31346466-3062-3164-A238-393062393833","building_id":"1e96bb7e-a7ee-474c-b6e2-a744f95905fc","height":27,"min_height":0},"geometry":{"type":"Polygon","coordinates":[[[-73.95482182502747,40.807438795757975],[-73.95489156246185,40.80734134649916],[-73.954918384552,40.80735352766433],[-73.95512223243713,40.80707336029954],[-73.95509541034698,40.80706117908292],[-73.9551705121994,40.80695966885759],[-73.95509541034698,40.806927185552695],[-73.95506858825684,40.80695966885759],[-73.95490765571594,40.80689064181564],[-73.95483791828156,40.80698403132584],[-73.95496129989624,40.807036816643006],[-73.95488619804382,40.80713020594746],[-73.95501494407654,40.807178930749785],[-73.95496129989624,40.807252017886185],[-73.95483791828156,40.8071992327402],[-73.95478963851929,40.80726419906776],[-73.95467162132263,40.807215474328046],[-73.95460188388824,40.80730480299019],[-73.95476818084717,40.80737382960132],[-73.95474135875702,40.80740631268759],[-73.95482182502747,40.807438795757975]]]}},{"type":"Feature","properties":{"id":"33373865-6232-3563-A331-646235383236","building_id":"8ba28733-c6e2-4da8-933c-b47f61421557","height":62,"min_height":0},"geometry":{"type":"Polygon","coordinates":[[[-73.94661962985992,40.808677200957106],[-73.94595980644226,40.80838891853193],[-73.94583106040955,40.808563512262936],[-73.94649624824524,40.808847733633144],[-73.94661962985992,40.808677200957106]]]}},{"type":"Feature","properties":{"id":"35653937-6462-3338-A336-383338356566","building_id":"1e96bb7e-a7ee-474c-b6e2-a744f95905fc","height":22,"min_height":0},"geometry":{"type":"Polygon","coordinates":[[[-73.95490765571594,40.80689064181564],[-73.95506858825684,40.80695966885759],[-73.95509541034698,40.806927185552695],[-73.95493447780609,40.806858158476984],[-73.95490765571594,40.80689064181564]]]}},{"type":"Feature","properties":{"id":"64353934-6439-3438-A266-363634386534","building_id":"1e96bb7e-a7ee-474c-b6e2-a744f95905fc","height":22,"min_height":0},"geometry":{"type":"Polygon","coordinates":[[[-73.9548808336258,40.8074631580503],[-73.95495057106018,40.80736570882726],[-73.95489156246185,40.80734134649916],[-73.95482182502747,40.807438795757975],[-73.9548808336258,40.8074631580503]]]}}]}