{"type":"FeatureCollection","features":[{"type":"Feature","properties":{"id":"36356138-6335-3539-B133-646135373535","building_id":"aa8b39ad-506b-48ec-9847-cfd5ce3d063f","height":25,"min_height":0},"geometry":{"type":"Polygon","coordinates":[[[-73.9620691537857,40.80823056568096],[-73.96205306053162,40.80822244501175],[-73.96202623844147,40.80815747962231],[-73.96203696727753,40.808141238264994],[-73.96183848381042,40.80805597107394],[-73.96182775497437,40.808072212452146],[-73.96173655986786,40.80809251416926],[-73.96171510219574,40.80808033313971],[-73.96160244941711,40.80823868634917],[-73.9616185426712,40.80824274668291],[-73.96164536476135,40.8083077119889],[-73.9616346359253,40.80832395330546],[-73.96184384822845,40.808413280475435],[-73.96185994148254,40.80839297885646],[-73.96194040775299,40.80837673755681],[-73.96196186542511,40.80838485820715],[-73.9620691537857,40.80823056568096]]]}},{"type":"Feature","properties":{"id":"65633038-3961-3863-A333-663265383131","building_id":"ade618ca-4e0f-4767-8fa1-18705d56dcaa","height":null,"min_height":0},"geometry":{"type":"Polygon","coordinates":[[[-73.96108746528625,40.80825086734967],[-73.96099627017975,40.80837673755681],[-73.96102845668793,40.80838891853193],[-73.96111965179443,40.80826304834787],[-73.96108746528625,40.80825086734967]]]}},{"type":"Feature","properties":{"id":"35323439-6565-3666-B435-363763393930","building_id":"35fa0c28-642d-47c0-817a-bd65ad29e3ee","height":25.6,"min_height":0},"geometry":{"type":"Polygon","coordinates":[[[-73.96102845668793,40.8071423871514],[-73.96167755126953,40.80741443345667],[-73.96177411079407,40.80728450103206],[-73.96112501621246,40.80701245419411],[-73.96102845668793,40.8071423871514]]]}},{"type":"Feature","properties":{"id":"66626135-3934-3735-B137-303431396134","building_id":"35fa0c28-642d-47c0-817a-bd65ad29e3ee","height":null,"min_height":0},"geometry":{"type":"Polygon","coordinates":[[[-73.96126985549927,40.80724389709724],[-73.96124839782715,40.80727638024709],[-73.96140933036804,40.807345406887805],[-73.96143078804016,40.80731292377169],[-73.96126985549927,40.80724389709724]]]}},{"type":"Feature","properties":{"id":"63396666-6161-3334-B635-353739363837","building_id":"ade618ca-4e0f-4767-8fa1-18705d56dcaa","height":null,"min_height":0},"geometry":{"type":"Polygon","coordinates":[[[-73.96108746528625,40.80825086734967],[-73.96117866039276,40.80812499690373],[-73.96097481250763,40.808039729691814],[-73.96070659160614,40.80840922015216],[-73.96091043949127,40.80849448688929],[-73.96108746528625,40.80825086734967]]]}},{"type":"Feature","properties":{"id":"63376433-3131-3462-A532-383939383262","building_id":"56d4a5a2-e893-4a73-9ecc-b47817e0d67a","height":null,"min_height":0},"geometry":{"type":"Polygon","coordinates":[[[-73.9614200592041,40.80917661684214],[-73.96151661872864,40.809034507013536],[-73.96107137203217,40.80885179392959],[-73.9609694480896,40.808989843861724],[-73.9614200592041,40.80917661684214]]]}},{"type":"Feature","properties":{"id":"63333062-6662-3162-A263-613830613335","building_id":"aa8b39ad-506b-48ec-9847-cfd5ce3d063f","height":20,"min_height":0},"geometry":{"type":"Polygon","coordinates":[[[-73.96224081516266,40.80821838467679],[-73.96215498447418,40.80817778131333],[-73.96213352680206,40.808133117584845],[-73.96218180656433,40.808064091763555],[-73.96216034889221,40.80805191072878],[-73.96216034889221,40.808043790037715],[-73.96186530590057,40.80792197955236],[-73.96185994148254,40.80792603990551],[-73.96182775497437,40.80790979849155],[-73.9617794752121,40.807978824473366],[-73.96171510219574,40.807995065870415],[-73.96162927150726,40.807958522721464],[-73.96142542362213,40.80822650534648],[-73.96151661872864,40.80826304834787],[-73.96153271198273,40.80831583264768],[-73.96147906780243,40.80838485820715],[-73.96184384822845,40.80853509005894],[-73.96189212799072,40.80846606465576],[-73.96195650100708,40.80844982337399],[-73.96204769611359,40.808490426570984],[-73.96224081516266,40.80821838467679]]]}},{"type":"Feature","properties":{"id":"38656330-3562-3638-A263-346465306366","building_id":"aa8b39ad-506b-48ec-9847-cfd5ce3d063f","height":32,"min_height":0},"geometry":{"type":"Polygon","coordinates":[[[-73.96181166172028,40.80809657451195],[-73.96175801753998,40.808108755538484],[-73.96170437335968,40.80813717792506],[-73.9616721868515,40.80817372097562],[-73.96165072917938,40.80821838467679],[-73.96165609359741,40.80826304834787],[-73.96167755126953,40.808303651659145],[-73.96171510219574,40.80834019461804],[-73.96176338195801,40.80836455657945],[-73.96182239055634,40.80837267723126],[-73.96188139915466,40.80836861690548],[-73.96194040775299,40.80835237559987],[-73.96198332309723,40.8083198929767],[-73.96201014518738,40.80827928967537],[-73.96202087402344,40.80823462601521],[-73.96200478076935,40.808185901988],[-73.9619779586792,40.80814935894415],[-73.96192967891693,40.80811687622162],[-73.96187603473663,40.808100634854355],[-73.96181166172028,40.80809657451195]]]}},{"type":"Feature","properties":{"id":"36636135-3034-3136-B265-313561363330","building_id":"10276d6e-5f1a-4a4a-87a1-bc9db434af1b","height":59.4,"min_height":0},"geometry":{"type":"Polygon","coordinates":[[[-73.95987510681152,40.80784483279601],[-73.95995557308197,40.80773520304058],[-73.95944595336914,40.807520003364345],[-73.9593654870987,40.80763369384627],[-73.95987510681152,40.80784483279601]]]}},{"type":"Feature","properties":{"id":"39613564-3039-3564-A133-633062666165","building_id":"10276d6e-5f1a-4a4a-87a1-bc9db434af1b","height":54.7,"min_height":0},"geometry":{"type":"Polygon","coordinates":[[[-73.95991265773773,40.8078813760076],[-73.9600145816803,40.807739263405125],[-73.95984292030334,40.807666176805355],[-73.95987510681152,40.80762151273254],[-73.95983755588531,40.807601210871326],[-73.95982682704926,40.80760933161656],[-73.95964980125427,40.80753624487366],[-73.9596551656723,40.8075281241195],[-73.9596176147461,40.80751188260817],[-73.95958542823792,40.80755654675477],[-73.95941913127899,40.807487520333694],[-73.95931720733643,40.80763369384627],[-73.95991265773773,40.8078813760076]]]}},{"type":"Feature","properties":{"id":"37353334-3361-3962-A631-636133633837","building_id":"56d4a5a2-e893-4a73-9ecc-b47817e0d67a","height":null,"min_height":0},"geometry":{"type":"Polygon","coordinates":[[[-73.96145761013031,40.809192857946044],[-73.96157562732697,40.80903044672826],[-73.96102845668793,40.8088071306548],[-73.9609158039093,40.808969542419135],[-73.96145761013031,40.809192857946044]]]}},{"type":"Feature","properties":{"id":"30646635-6462-3339-B361-363761323765","building_id":"2fbe6c26-fe52-4c96-be9f-ce41861436c6","height":45.4,"min_height":0},"geometry":{"type":"Polygon","coordinates":[[[-73.95505785942078,40.81359405059217],[-73.95474135875702,40.81346819028184],[-73.95461797714233,40.8136305906375],[-73.95481646060944,40.81371585066509],[-73.95502030849457,40.81384577049647],[-73.95507395267487,40.81390667032983],[-73.95528316497803,40.8138051705765],[-73.95512223243713,40.813622470629184],[-73.95505785942078,40.81359405059217]]]}},{"type":"Feature","properties":{"id":"35326630-3831-3430-B735-353438613631","building_id":"355cbd3a-2c31-45ed-9449-f598e9e5b443","height":24.4,"min_height":21.5},"geometry":{"type":"Polygon","coordinates":[[[-73.94336879253387,40.82310596305925],[-73.94329369068146,40.82307348765909],[-73.94318103790283,40.82319527032769],[-73.94379794597626,40.82345507260669],[-73.94385695457458,40.82331299336147],[-73.9437872171402,40.8232845774759],[-73.94377648830414,40.82329269630159],[-73.9435887336731,40.82321150799996],[-73.94354581832886,40.82327239923549],[-73.94351899623871,40.823260220992864],[-73.94356191158295,40.82319932974616],[-73.94354045391083,40.82318715149009],[-73.94349753856659,40.82324804274799],[-73.94347071647644,40.823239923916844],[-73.94351363182068,40.82317903265147],[-73.94335806369781,40.82311408190682],[-73.94336879253387,40.82310596305925]]]}},{"type":"Feature","properties":{"id":"35366464-3133-3937-A334-373335383437","building_id":"355cbd3a-2c31-45ed-9449-f598e9e5b443","height":15.7,"min_height":0},"geometry":{"type":"Polygon","coordinates":[[[-73.94333124160767,40.823008536811045],[-73.94341170787811,40.82304101224304],[-73.94343852996826,40.823008536811045],[-73.94335806369781,40.82297606136319],[-73.94333124160767,40.823008536811045]]]}},{"type":"Feature","properties":{"id":"37343834-6362-3335-A164-633432346138","building_id":"355cbd3a-2c31-45ed-9449-f598e9e5b443","height":15.7,"min_height":0},"geometry":{"type":"Polygon","coordinates":[[[-73.94383013248444,40.8232196268346],[-73.94391059875488,40.823252102163195],[-73.94392669200897,40.82321556741741],[-73.94385695457458,40.823183092070934],[-73.94383013248444,40.8232196268346]]]}},{"type":"Feature","properties":{"id":"33653631-3638-3033-B735-393466353566","building_id":"646489f3-25da-4678-9785-7ccec434cabb","height":31,"min_height":0},"geometry":{"type":"Polygon","coordinates":[[[-73.95032107830048,40.81930217367636],[-73.9501816034317,40.81948891762784],[-73.95022988319397,40.81963506470137],[-73.95016551017761,40.819659422515656],[-73.95011723041534,40.81969189958747],[-73.95008504390717,40.81974467479523],[-73.9500743150711,40.81979744996099],[-73.95010113716125,40.81986240395352],[-73.95013868808746,40.81990300016656],[-73.95017623901367,40.819923298263745],[-73.95025670528412,40.819947655972186],[-73.95034790039062,40.81993953673705],[-73.95041227340698,40.82011410007382],[-73.94979536533356,40.82024806697419],[-73.94981682300568,40.82031708012033],[-73.95030498504639,40.82052411912781],[-73.95061612129211,40.82045510619713],[-73.95070731639862,40.82068650221095],[-73.95071804523468,40.82067838306622],[-73.95093262195587,40.820390152784995],[-73.9508843421936,40.82027242456337],[-73.9510452747345,40.820235888176256],[-73.95088970661163,40.81982586734054],[-73.9514422416687,40.81970001885293],[-73.95193576812744,40.81901799708936],[-73.9513349533081,40.81915196620352],[-73.95129203796387,40.819030176110914],[-73.95121157169342,40.819050474475205],[-73.95120084285736,40.81906265349079],[-73.95121157169342,40.81910325019328],[-73.95032107830048,40.81930217367636]]]}},{"type":"Feature","properties":{"id":"37643430-6237-3130-B065-386435343230","building_id":"355cbd3a-2c31-45ed-9449-f598e9e5b443","height":4.1,"min_height":0},"geometry":{"type":"Polygon","coordinates":[[[-73.9431756734848,40.8231749732318],[-73.94315958023071,40.823191210909016],[-73.94317030906677,40.82320744858225],[-73.94320249557495,40.8232196268346],[-73.9431756734848,40.8231749732318]]]}},{"type":"Feature","properties":{"id":"38356531-3933-3763-B265-363262373538","building_id":"355cbd3a-2c31-45ed-9449-f598e9e5b443","height":9.9,"min_height":0},"geometry":{"type":"Polygon","coordinates":[[[-73.94385695457458,40.823183092070934],[-73.94381403923035,40.8231668543917],[-73.9437335729599,40.82327645864922],[-73.94377648830414,40.82329269630159],[-73.94385695457458,40.823183092070934]]]}},{"type":"Feature","properties":{"id":"31636639-3231-3334-B765-346237643066","building_id":"355cbd3a-2c31-45ed-9449-f598e9e5b443","height":27,"min_height":0},"geometry":{"type":"Polygon","coordinates":[[[-73.94351899623871,40.823260220992864],[-73.94354581832886,40.82327239923549],[-73.9435887336731,40.82320744858225],[-73.94356191158295,40.82319932974616],[-73.94351899623871,40.823260220992864]]]}},{"type":"Feature","properties":{"id":"36373363-3132-3237-B137-343836663335","building_id":"355cbd3a-2c31-45ed-9449-f598e9e5b443","height":4.1,"min_height":0},"geometry":{"type":"Polygon","coordinates":[[[-73.9437872171402,40.823467250813565],[-73.94380867481232,40.823467250813565],[-73.94381940364838,40.8234469538009],[-73.94376039505005,40.82345507260669],[-73.9437872171402,40.823467250813565]]]}},{"type":"Feature","properties":{"id":"61356561-3532-3731-B830-313264666464","building_id":"355cbd3a-2c31-45ed-9449-f598e9e5b443","height":29,"min_height":0},"geometry":{"type":"Polygon","coordinates":[[[-73.94351363182068,40.82317903265147],[-73.94347071647644,40.823239923916844],[-73.94349753856659,40.82324804274799],[-73.94354045391083,40.82318715149009],[-73.94351363182068,40.8231749732318],[-73.94351363182068,40.82317903265147]]]}},{"type":"Feature","properties":{"id":"33343433-3530-3533-A362-316332386331","building_id":"9bf6fe25-6260-4c9e-9a8d-dffb5f45474b","height":50.7,"min_height":0},"geometry":{"type":"Polygon","coordinates":[[[-73.94910335540771,40.819590408685286],[-73.94949495792389,40.819050474475205],[-73.94901216030121,40.81884749055277],[-73.948615193367,40.81938336676336],[-73.94910335540771,40.819590408685286]]]}},{"type":"Feature","properties":{"id":"65313263-3533-3233-B266-353165643066","building_id":"2fbe6c26-fe52-4c96-be9f-ce41861436c6","height":23.6,"min_height":0},"geometry":{"type":"Polygon","coordinates":[[[-73.95496666431427,40.81396351012387],[-73.95495593547821,40.81397163009049],[-73.95514905452728,40.814052829701836],[-73.95516514778137,40.814028469828884],[-73.95537972450256,40.81392291027595],[-73.95528316497803,40.8138051705765],[-73.95496666431427,40.81396351012387]]]}},{"type":"Feature","properties":{"id":"31323133-3930-3231-B933-343031353236","building_id":"2b015103-1d26-42ed-aaed-244fc8a1cbe1","height":null,"min_height":0},"geometry":{"type":"Polygon","coordinates":[[[-73.95793318748474,40.816760779817],[-73.95786881446838,40.81673236112434],[-73.95771324634552,40.816955650524335],[-73.95798146724701,40.81706526504567],[-73.9580512046814,40.8169718897241],[-73.95795464515686,40.816931291717225],[-73.95804584026337,40.81680543773797],[-73.95793318748474,40.816760779817]]]}},{"type":"Feature","properties":{"id":"61336531-6363-3162-A339-316336626136","building_id":"355cbd3a-2c31-45ed-9449-f598e9e5b443","height":21.5,"min_height":4.1},"geometry":{"type":"Polygon","coordinates":[[[-73.94336879253387,40.82310596305925],[-73.94341170787811,40.82304101224304],[-73.94333124160767,40.823008536811045],[-73.94315421581268,40.82319932974616],[-73.94380867481232,40.82347536961689],[-73.94391059875488,40.823252102163195],[-73.94383013248444,40.8232196268346],[-73.94377648830414,40.82329269630159],[-73.9435887336731,40.82321150799996],[-73.94354581832886,40.82327239923549],[-73.94351899623871,40.823260220992864],[-73.94356191158295,40.82319932974616],[-73.94354045391083,40.82318715149009],[-73.94349753856659,40.82324804274799],[-73.94347071647644,40.823239923916844],[-73.94351363182068,40.82317903265147],[-73.94335806369781,40.82311408190682],[-73.94336879253387,40.82310596305925]]]}},{"type":"Feature","properties":{"id":"33653039-6233-3361-B837-613264666134","building_id":"2fbe6c26-fe52-4c96-be9f-ce41861436c6","height":24.5,"min_height":0},"geometry":{"type":"Polygon","coordinates":[[[-73.95463943481445,40.81342353011436],[-73.95451605319977,40.813585930579336],[-73.95461797714233,40.8136305906375],[-73.95474135875702,40.81346819028184],[-73.95463943481445,40.81342353011436]]]}},{"type":"Feature","properties":{"id":"31636234-3434-3636-B863-616335303136","building_id":"355cbd3a-2c31-45ed-9449-f598e9e5b443","height":4.1,"min_height":0},"geometry":{"type":"Polygon","coordinates":[[[-73.94343852996826,40.823008536811045],[-73.94335806369781,40.82311408190682],[-73.94351363182068,40.82317903265147],[-73.94351363182068,40.8231749732318],[-73.9437335729599,40.82327645864922],[-73.94381403923035,40.8231668543917],[-73.94343852996826,40.823008536811045]]]}},{"type":"Feature","properties":{"id":"62363032-6634-3633-B036-663361333636","building_id":"355cbd3a-2c31-45ed-9449-f598e9e5b443","height":4.1,"min_height":0},"geometry":{"type":"Polygon","coordinates":[[[-73.94333124160767,40.823008536811045],[-73.9431756734848,40.8231749732318],[-73.94320249557495,40.8232196268346],[-73.94376039505005,40.82345507260669],[-73.94381940364838,40.8234469538009],[-73.94391059875488,40.823252102163195],[-73.94383013248444,40.8232196268346],[-73.94377648830414,40.82329269630159],[-73.9435887336731,40.82321150799996],[-73.94354581832886,40.82327239923549],[-73.94351899623871,40.823260220992864],[-73.94356191158295,40.82319932974616],[-73.94354045391083,40.82318715149009],[-73.94349753856659,40.82324804274799],[-73.94347071647644,40.823239923916844],[-73.94351363182068,40.82317903265147],[-73.94335806369781,40.82311408190682],[-73.94341170787811,40.82304101224304],[-73.94333124160767,40.823008536811045]]]}},{"type":"Feature","properties":{"id":"38363938-3462-3364-B663-326262316131","building_id":"646489f3-25da-4678-9785-7ccec434cabb","height":10,"min_height":8},"geometry":{"type":"Polygon","coordinates":[[[-73.94991338253021,40.819379307111376],[-73.9501816034317,40.81948891762784],[-73.95032107830048,40.81930217367636],[-73.9502888917923,40.81931029298954],[-73.9500367641449,40.81921286116594],[-73.94991338253021,40.819379307111376]]]}},{"type":"Feature","properties":{"id":"30396538-6533-3132-B631-633832346331","building_id":"201c01ed-4d6a-4b65-aeff-312ee740d587","height":null,"min_height":0},"geometry":{"type":"Polygon","coordinates":[[[-73.95719826221466,40.81032566513406],[-73.95717144012451,40.81037032738675],[-73.95719826221466,40.81038250799591],[-73.9572411775589,40.81032566513406],[-73.95720899105072,40.81031348451444],[-73.95719826221466,40.81032566513406]]]}},{"type":"Feature","properties":{"id":"31363565-3664-3130-B662-333861613563","building_id":"201c01ed-4d6a-4b65-aeff-312ee740d587","height":null,"min_height":0},"geometry":{"type":"Polygon","coordinates":[[[-73.95762205123901,40.81069920304924],[-73.95751476287842,40.81084536948714],[-73.95760595798492,40.81088597121828],[-73.9576381444931,40.81084536948714],[-73.95766496658325,40.810857550009075],[-73.9576381444931,40.8108981517328],[-73.95772933959961,40.81093469326288],[-73.95788490772247,40.81071138359803],[-73.957799077034,40.81067484194497],[-73.95777225494385,40.810719503962645],[-73.95774006843567,40.810703263232426],[-73.95776689052582,40.81066266138947],[-73.95767569541931,40.81062611970958],[-73.95762205123901,40.81069920304924]]]}},{"type":"Feature","properties":{"id":"34666262-3631-3637-B261-623366633863","building_id":"201c01ed-4d6a-4b65-aeff-312ee740d587","height":null,"min_height":0},"geometry":{"type":"Polygon","coordinates":[[[-73.9572948217392,40.81067078176005],[-73.95725727081299,40.81072762432626],[-73.95728945732117,40.810739804869854],[-73.9573323726654,40.81068702249823],[-73.9572948217392,40.81067078176005]]]}},{"type":"Feature","properties":{"id":"38396663-3038-3966-B261-383134356136","building_id":"0af9ab33-1af3-41f5-9cd6-8d4b69ef89b7","height":null,"min_height":0},"geometry":{"type":"Polygon","coordinates":[[[-73.95749866962433,40.8099237035068],[-73.95747721195221,40.809911522813394],[-73.95743429660797,40.809976486485596],[-73.95745575428009,40.80998460694016],[-73.95749866962433,40.8099237035068]]]}},{"type":"Feature","properties":{"id":"64336337-3466-3431-B536-306262366562","building_id":"201c01ed-4d6a-4b65-aeff-312ee740d587","height":null,"min_height":0},"geometry":{"type":"Polygon","coordinates":[[[-73.95710706710815,40.81028912326855],[-73.95694613456726,40.81051649454912],[-73.95703196525574,40.810553036289406],[-73.95706415176392,40.81050837415964],[-73.9570963382721,40.810520554743476],[-73.95706415176392,40.810565216865],[-73.95715534687042,40.81060175857843],[-73.95732164382935,40.81037438759006],[-73.95723044872284,40.81033784575138],[-73.95719826221466,40.81038250799591],[-73.95717144012451,40.81037032738675],[-73.95719826221466,40.81032566513406],[-73.95710706710815,40.81028912326855]]]}},{"type":"Feature","properties":{"id":"39663733-6333-3966-B735-303062666138","building_id":"201c01ed-4d6a-4b65-aeff-312ee740d587","height":null,"min_height":0},"geometry":{"type":"Polygon","coordinates":[[[-73.95703196525574,40.810553036289406],[-73.95702123641968,40.810565216865],[-73.95705342292786,40.81058145762901],[-73.9570963382721,40.810520554743476],[-73.95706415176392,40.81050837415964],[-73.95703196525574,40.810553036289406]]]}},{"type":"Feature","properties":{"id":"61333563-3330-3533-B832-343465363634","building_id":"201c01ed-4d6a-4b65-aeff-312ee740d587","height":null,"min_height":0},"geometry":{"type":"Polygon","coordinates":[[[-73.95776689052582,40.81066266138947],[-73.95774006843567,40.810703263232426],[-73.95777225494385,40.810719503962645],[-73.95780980587006,40.81065860120381],[-73.95777761936188,40.810646420645355],[-73.95776689052582,40.81066266138947]]]}},{"type":"Feature","properties":{"id":"39633338-6435-3239-B561-366366356163","building_id":"0af9ab33-1af3-41f5-9cd6-8d4b69ef89b7","height":null,"min_height":0},"geometry":{"type":"Polygon","coordinates":[[[-73.95736992359161,40.80984249884199],[-73.95728409290314,40.80981001694826],[-73.95731091499329,40.80991964327589],[-73.95736992359161,40.80984249884199]]]}},{"type":"Feature","properties":{"id":"64323538-6630-3262-A130-353730303766","building_id":"201c01ed-4d6a-4b65-aeff-312ee740d587","height":null,"min_height":0},"geometry":{"type":"Polygon","coordinates":[[[-73.9573484659195,40.810471832394796],[-73.95721971988678,40.81064236045867],[-73.9573484659195,40.810691082682155],[-73.9573323726654,40.81070732341536],[-73.95736455917358,40.81072356414458],[-73.95737528800964,40.81070732341536],[-73.95744502544403,40.81073574468891],[-73.95756840705872,40.810565216865],[-73.9573484659195,40.810471832394796]]]}},{"type":"Feature","properties":{"id":"37616362-3062-3634-B261-323361633466","building_id":"201c01ed-4d6a-4b65-aeff-312ee740d587","height":null,"min_height":0},"geometry":{"type":"Polygon","coordinates":[[[-73.95703196525574,40.81075198541117],[-73.95708560943604,40.81077634648716],[-73.95710706710815,40.81075198541117],[-73.95702660083771,40.810719503962645],[-73.95701050758362,40.81074386505054],[-73.95703196525574,40.81075198541117]]]}},{"type":"Feature","properties":{"id":"37353761-3832-3438-B835-353935626466","building_id":"201c01ed-4d6a-4b65-aeff-312ee740d587","height":null,"min_height":0},"geometry":{"type":"Polygon","coordinates":[[[-73.95750403404236,40.810650480831725],[-73.95745575428009,40.810719503962645],[-73.95757377147675,40.810772286308435],[-73.95762205123901,40.81069920304924],[-73.95750403404236,40.810650480831725]]]}},{"type":"Feature","properties":{"id":"32623364-6239-3131-B238-306665663161","building_id":"201c01ed-4d6a-4b65-aeff-312ee740d587","height":null,"min_height":0},"geometry":{"type":"Polygon","coordinates":[[[-73.95719289779663,40.81069920304924],[-73.95725727081299,40.81072762432626],[-73.9572948217392,40.81067078176005],[-73.95723581314087,40.810646420645355],[-73.95719289779663,40.81069920304924]]]}},{"type":"Feature","properties":{"id":"65626538-3361-3033-B830-643466363564","building_id":"201c01ed-4d6a-4b65-aeff-312ee740d587","height":null,"min_height":0},"geometry":{"type":"Polygon","coordinates":[[[-73.95760595798492,40.81088597121828],[-73.95759522914886,40.810902211903795],[-73.95762205123901,40.81091439241533],[-73.95766496658325,40.810857550009075],[-73.9576381444931,40.81084536948714],[-73.95760595798492,40.81088597121828]]]}},{"type":"Feature","properties":{"id":"61366265-3831-3764-A365-643662623930","building_id":"e6b16194-023d-412e-a220-0cf5cfa0360f","height":null,"min_height":0},"geometry":{"type":"Polygon","coordinates":[[[-73.95347535610199,40.80984249884199],[-73.95346462726593,40.80989528188542],[-73.95348072052002,40.8099237035068],[-73.95349144935608,40.80991964327589],[-73.95348608493805,40.809850619312954],[-73.95347535610199,40.80984249884199]]]}},{"type":"Feature","properties":{"id":"61656638-3863-3266-B639-656236393731","building_id":"201c01ed-4d6a-4b65-aeff-312ee740d587","height":null,"min_height":0},"geometry":{"type":"Polygon","coordinates":[[[-73.95720899105072,40.81052867513145],[-73.95728409290314,40.81055709648152],[-73.95730018615723,40.8105367955184],[-73.95722508430481,40.81050431396454],[-73.95720899105072,40.81052867513145]]]}},{"type":"Feature","properties":{"id":"39363862-3730-3234-B736-623634643731","building_id":"201c01ed-4d6a-4b65-aeff-312ee740d587","height":null,"min_height":0},"geometry":{"type":"Polygon","coordinates":[[[-73.95722508430481,40.81050431396454],[-73.95730018615723,40.8105367955184],[-73.95733773708344,40.81048401298531],[-73.95726263523102,40.810455591603926],[-73.95722508430481,40.81050431396454]]]}},{"type":"Feature","properties":{"id":"66343361-6237-3337-B933-633362656437","building_id":"201c01ed-4d6a-4b65-aeff-312ee740d587","height":null,"min_height":0},"geometry":{"type":"Polygon","coordinates":[[[-73.95739138126373,40.81078446684381],[-73.9570963382721,40.81065860120381],[-73.95704805850983,40.81072762432626],[-73.95710706710815,40.81075198541117],[-73.95708560943604,40.81077634648716],[-73.95703196525574,40.81075198541117],[-73.95698368549347,40.810812888084314],[-73.95727872848511,40.81093469326288],[-73.95732164382935,40.81087785087405],[-73.95727336406708,40.810857550009075],[-73.95728945732117,40.81083318896293],[-73.95734310150146,40.81085348983535],[-73.95739138126373,40.81078446684381]]]}},{"type":"Feature","properties":{"id":"32613466-3538-3830-B539-373035306565","building_id":"0af9ab33-1af3-41f5-9cd6-8d4b69ef89b7","height":null,"min_height":0},"geometry":{"type":"Polygon","coordinates":[[[-73.95745575428009,40.80998460694016],[-73.95743429660797,40.809976486485596],[-73.95747721195221,40.809911522813394],[-73.95737528800964,40.80987092048596],[-73.9573860168457,40.809850619312954],[-73.95736992359161,40.80984249884199],[-73.95731091499329,40.80991964327589],[-73.95734310150146,40.809976486485596],[-73.95741283893585,40.810069871652956],[-73.957439661026,40.810029269422444],[-73.95746111869812,40.810029269422444],[-73.95747721195221,40.810008968297836],[-73.95750403404236,40.81002114897336],[-73.95744502544403,40.81009829319956],[-73.95753622055054,40.810163256688924],[-73.95762205123901,40.81004551031765],[-73.95761132240295,40.81004145009419],[-73.95765423774719,40.80998460694016],[-73.95749866962433,40.8099237035068],[-73.95745575428009,40.80998460694016]]]}},{"type":"Feature","properties":{"id":"32383532-3266-3738-B234-613162373734","building_id":"201c01ed-4d6a-4b65-aeff-312ee740d587","height":null,"min_height":0},"geometry":{"type":"Polygon","coordinates":[[[-73.95732164382935,40.81087785087405],[-73.95734310150146,40.81088597121828],[-73.95736455917358,40.8108616101826],[-73.95728945732117,40.81083318896293],[-73.95727336406708,40.810857550009075],[-73.95732164382935,40.81087785087405]]]}}]}