{"type":"FeatureCollection","features":[{"type":"Feature","properties":{"id":"32333362-3334-3738-B163-626533353732","building_id":"b29f6110-0d6d-4b40-bfe0-98e1220c3391","height":61,"min_height":0},"geometry":{"type":"Polygon","coordinates":[[[-73.99039328098297,40.7643116472799],[-73.99048447608948,40.76434821445403],[-73.99051129817963,40.76430758425931],[-73.99041473865509,40.764266954039755],[-73.99039328098297,40.7643116472799]]]}},{"type":"Feature","properties":{"id":"30323137-6134-3736-B564-623762636662","building_id":"b29f6110-0d6d-4b40-bfe0-98e1220c3391","height":75,"min_height":0},"geometry":{"type":"Polygon","coordinates":[[[-73.99033963680267,40.76434821445403],[-73.99036645889282,40.76431571030025],[-73.99028599262238,40.76428320613056],[-73.99028062820435,40.76429539519606],[-73.99017870426178,40.764250701944974],[-73.99016261100769,40.76427508008564],[-73.99033963680267,40.76434821445403]]]}},{"type":"Feature","properties":{"id":"61366437-6633-3838-B839-333039353261","building_id":"cf38872e-950b-46f2-9046-6ab68d1d9bef","height":51.1,"min_height":0},"geometry":{"type":"Polygon","coordinates":[[[-73.9960527420044,40.76364124552174],[-73.99537682533264,40.76364124552174],[-73.99589717388153,40.76385658742976],[-73.9960527420044,40.76364124552174]]]}},{"type":"Feature","properties":{"id":"35373262-3636-3636-A330-663833313832","building_id":"b29f6110-0d6d-4b40-bfe0-98e1220c3391","height":46,"min_height":0},"geometry":{"type":"Polygon","coordinates":[[[-73.99041473865509,40.76444166380767],[-73.9903074502945,40.76439697065496],[-73.99029672145844,40.76440915969957],[-73.99040400981903,40.76445385284413],[-73.99041473865509,40.76444166380767]]]}},{"type":"Feature","properties":{"id":"38393134-3663-3932-B361-323537383666","building_id":"b29f6110-0d6d-4b40-bfe0-98e1220c3391","height":52,"min_height":0},"geometry":{"type":"Polygon","coordinates":[[[-73.99009823799133,40.76410036987983],[-73.99008214473724,40.76412474807566],[-73.99017333984375,40.76416537838216],[-73.99019479751587,40.76414100020125],[-73.99009823799133,40.76410036987983]]]}},{"type":"Feature","properties":{"id":"65393135-3761-3065-A535-356164326533","building_id":"b29f6110-0d6d-4b40-bfe0-98e1220c3391","height":72.5,"min_height":0},"geometry":{"type":"Polygon","coordinates":[[[-73.98999094963074,40.76427914310821],[-73.99011969566345,40.764331962379146],[-73.99017870426178,40.764250701944974],[-73.99028062820435,40.76429539519606],[-73.99028599262238,40.76428320613056],[-73.99006068706512,40.76418569352609],[-73.98999094963074,40.76427914310821]]]}},{"type":"Feature","properties":{"id":"35383338-3933-3637-B462-623262356138","building_id":"ffbbb8e1-e6a3-46da-9a4e-fce62c17ceb4","height":5,"min_height":0},"geometry":{"type":"Polygon","coordinates":[[[-73.99300038814545,40.76472201108015],[-73.99288237094879,40.764673255117714],[-73.99285018444061,40.764717948084666],[-73.99296283721924,40.764766704014306],[-73.99300038814545,40.76472201108015]]]}},{"type":"Feature","properties":{"id":"62383531-3436-3364-B265-356438323837","building_id":"b29f6110-0d6d-4b40-bfe0-98e1220c3391","height":71,"min_height":0},"geometry":{"type":"Polygon","coordinates":[[[-73.99008214473724,40.76457980608973],[-73.99010896682739,40.76459199510083],[-73.99015188217163,40.76453511302989],[-73.99013578891754,40.76453105002295],[-73.99010360240936,40.764575743085516],[-73.99008214473724,40.76457980608973]]]}},{"type":"Feature","properties":{"id":"31333662-3461-3363-A636-643463633366","building_id":"ffbbb8e1-e6a3-46da-9a4e-fce62c17ceb4","height":7,"min_height":0},"geometry":{"type":"Polygon","coordinates":[[[-73.99229764938354,40.76438478160807],[-73.99229228496552,40.76435227747217],[-73.99224936962128,40.76435227747217],[-73.9922547340393,40.76438884462394],[-73.99229764938354,40.76438478160807]]]}},{"type":"Feature","properties":{"id":"30303032-6230-3330-A666-333266316235","building_id":"fc27e1ad-d768-42f7-ae59-9fcd818e5035","height":5,"min_height":0},"geometry":{"type":"Polygon","coordinates":[[[-73.9921635389328,40.76556710874601],[-73.9924693107605,40.76514862422576],[-73.99244785308838,40.76513643531675],[-73.99244785308838,40.76511612046343],[-73.99243175983429,40.76510393154848],[-73.99240493774414,40.76509986857633],[-73.99238884449005,40.76511205749202],[-73.99231910705566,40.76508361668522],[-73.99228155612946,40.764986105255105],[-73.99195969104767,40.76485202680513],[-73.99192750453949,40.76485202680513],[-73.99190068244934,40.76486015277948],[-73.99157345294952,40.76531520575827],[-73.9921635389328,40.76556710874601]]]}},{"type":"Feature","properties":{"id":"33373363-3966-3366-B735-313962363531","building_id":"b29f6110-0d6d-4b40-bfe0-98e1220c3391","height":58,"min_height":0},"geometry":{"type":"Polygon","coordinates":[[[-73.99043619632721,40.764413222713955],[-73.99032890796661,40.76436852954211],[-73.99031817913055,40.76438478160807],[-73.99042546749115,40.764429474769],[-73.99043619632721,40.764413222713955]]]}},{"type":"Feature","properties":{"id":"38656666-3232-3461-B432-346430653034","building_id":"bc21e3b7-f08b-401f-bdc3-39861c9e81ff","height":8,"min_height":0},"geometry":{"type":"Polygon","coordinates":[[[-73.99640679359436,40.76457980608973],[-73.99663746356964,40.76467731811596],[-73.9968091249466,40.76443760079502],[-73.99657845497131,40.7643400884171],[-73.99640679359436,40.76457980608973]]]}},{"type":"Feature","properties":{"id":"61393630-6130-3337-B432-366165316137","building_id":"b29f6110-0d6d-4b40-bfe0-98e1220c3391","height":81,"min_height":0},"geometry":{"type":"Polygon","coordinates":[[[-73.99044156074524,40.76440509668495],[-73.99048447608948,40.76434821445403],[-73.99037718772888,40.764303521238475],[-73.99033427238464,40.764360403507624],[-73.99044156074524,40.76440509668495]]]}},{"type":"Feature","properties":{"id":"63363337-3336-3062-A163-633565316436","building_id":"581cdc23-22d6-4fda-9390-e59bb84c40c7","height":12,"min_height":0},"geometry":{"type":"Polygon","coordinates":[[[-73.99215281009674,40.765794633204564],[-73.99199724197388,40.765729626295894],[-73.99198651313782,40.765741815096135],[-73.99214208126068,40.76580682199287],[-73.99215281009674,40.765794633204564]]]}},{"type":"Feature","properties":{"id":"39623436-3833-3735-A432-396664333831","building_id":"02e9711e-9630-4723-988a-7f9a3e963a32","height":6.5,"min_height":0},"geometry":{"type":"Polygon","coordinates":[[[-73.99522125720978,40.76479108196571],[-73.99526953697205,40.76472201108015],[-73.99525880813599,40.764717948084666],[-73.99521052837372,40.76478701897443],[-73.99522125720978,40.76479108196571]]]}},{"type":"Feature","properties":{"id":"35326365-3030-3065-A136-346237313139","building_id":"581cdc23-22d6-4fda-9390-e59bb84c40c7","height":65,"min_height":0},"geometry":{"type":"Polygon","coordinates":[[[-73.99198651313782,40.76591652098696],[-73.99204552173615,40.76594089851662],[-73.99214208126068,40.76580682199287],[-73.99191677570343,40.76570931162388],[-73.99187922477722,40.76577025562125],[-73.9920723438263,40.76585151419749],[-73.99202942848206,40.765908395141736],[-73.9920026063919,40.76589620637208],[-73.99198651313782,40.76591652098696]]]}},{"type":"Feature","properties":{"id":"62353365-3562-3536-A535-613338653065","building_id":"b29f6110-0d6d-4b40-bfe0-98e1220c3391","height":55,"min_height":0},"geometry":{"type":"Polygon","coordinates":[[[-73.99042010307312,40.76425882799285],[-73.99017870426178,40.764161315352595],[-73.99015724658966,40.764189756554146],[-73.990398645401,40.764287269152646],[-73.99042010307312,40.76425882799285]]]}},{"type":"Feature","properties":{"id":"30663735-3134-3539-B962-396534646361","building_id":"ffbbb8e1-e6a3-46da-9a4e-fce62c17ceb4","height":1.5,"min_height":0},"geometry":{"type":"Polygon","coordinates":[[[-73.99261951446533,40.7643116472799],[-73.99253368377686,40.76443353778214],[-73.99262487888336,40.76447010488923],[-73.99268388748169,40.76438884462394],[-73.9930808544159,40.764555428060845],[-73.99310767650604,40.76451886100068],[-73.99261951446533,40.7643116472799]]]}},{"type":"Feature","properties":{"id":"64653365-3933-3763-B136-343839373132","building_id":"b29f6110-0d6d-4b40-bfe0-98e1220c3391","height":46,"min_height":0},"geometry":{"type":"Polygon","coordinates":[[[-73.99054884910583,40.76425882799285],[-73.9904522895813,40.764218197743475],[-73.99043619632721,40.76424257589608],[-73.99053275585175,40.76427914310821],[-73.99054884910583,40.76425882799285]]]}},{"type":"Feature","properties":{"id":"36343761-6431-3830-B933-623166313064","building_id":"b29f6110-0d6d-4b40-bfe0-98e1220c3391","height":6,"min_height":0},"geometry":{"type":"Polygon","coordinates":[[[-73.99011433124542,40.76408005470981],[-73.99007678031921,40.764063802569325],[-73.98993194103241,40.764266954039755],[-73.9899480342865,40.76427101706281],[-73.98989975452423,40.7643400884171],[-73.98988366127014,40.76433602539822],[-73.98973882198334,40.76453917603658],[-73.98977637290955,40.764555428060845],[-73.98992657661438,40.76434821445403],[-73.98990511894226,40.7643400884171],[-73.98995876312256,40.764266954039755],[-73.98997485637665,40.76427101706281],[-73.99011433124542,40.76408005470981]]]}},{"type":"Feature","properties":{"id":"36646439-6537-3431-B539-303938373562","building_id":"2fdd67cf-56c1-4d99-a9fc-c8bc7f146d4b","height":17.3,"min_height":0},"geometry":{"type":"Polygon","coordinates":[[[-73.997061252594,40.76454323904298],[-73.99688959121704,40.76447010488923],[-73.99668574333191,40.764754515035236],[-73.99655163288116,40.76470169610016],[-73.99640679359436,40.76489671965186],[-73.99671256542206,40.765026735035065],[-73.997061252594,40.76454323904298]]]}},{"type":"Feature","properties":{"id":"31306561-3237-3434-A531-393334363930","building_id":"02e9711e-9630-4723-988a-7f9a3e963a32","height":8.5,"min_height":0},"geometry":{"type":"Polygon","coordinates":[[[-73.99503886699677,40.76482358588703],[-73.99521589279175,40.764587932097385],[-73.99502277374268,40.76450667197619],[-73.99485111236572,40.76474638904796],[-73.99503886699677,40.76482358588703]]]}},{"type":"Feature","properties":{"id":"36306165-6230-3530-A638-393234386135","building_id":"b29f6110-0d6d-4b40-bfe0-98e1220c3391","height":64,"min_height":0},"geometry":{"type":"Polygon","coordinates":[[[-73.99036645889282,40.76431571030025],[-73.99037718772888,40.764303521238475],[-73.99039328098297,40.7643116472799],[-73.99040937423706,40.76429133217445],[-73.99015188217163,40.76418569352609],[-73.99013042449951,40.764218197743475],[-73.99036645889282,40.76431571030025]]]}},{"type":"Feature","properties":{"id":"66356439-6639-3936-B936-663166643434","building_id":"ffbbb8e1-e6a3-46da-9a4e-fce62c17ceb4","height":5,"min_height":0},"geometry":{"type":"Polygon","coordinates":[[[-73.99244248867035,40.76423851287126],[-73.99240493774414,40.76422226076954],[-73.9923620223999,40.76427914310821],[-73.99233520030975,40.764266954039755],[-73.99227619171143,40.76435227747217],[-73.9922547340393,40.76435227747217],[-73.99223864078522,40.764344151435694],[-73.99199724197388,40.76467731811596],[-73.99209380149841,40.764717948084666],[-73.99244248867035,40.76423851287126]]]}},{"type":"Feature","properties":{"id":"64383735-3934-3761-A361-336430306234","building_id":"9a403ce0-8170-48bb-b9ab-b015f2932997","height":8.5,"min_height":0},"geometry":{"type":"Polygon","coordinates":[[[-73.9952963590622,40.76411662201136],[-73.99547338485718,40.763872839620916],[-73.99515688419342,40.76374282198037],[-73.99497985839844,40.76398254180725],[-73.9952963590622,40.76411662201136]]]}},{"type":"Feature","properties":{"id":"62343564-6230-3836-A433-653831643164","building_id":"b29f6110-0d6d-4b40-bfe0-98e1220c3391","height":59,"min_height":0},"geometry":{"type":"Polygon","coordinates":[[[-73.9900928735733,40.76461231011436],[-73.99013042449951,40.76463262512169],[-73.99014115333557,40.76462043611804],[-73.99009823799133,40.764604184109714],[-73.9900928735733,40.76461231011436]]]}},{"type":"Feature","properties":{"id":"65666432-6132-3336-A639-623130623964","building_id":"b29f6110-0d6d-4b40-bfe0-98e1220c3391","height":59,"min_height":0},"geometry":{"type":"Polygon","coordinates":[[[-73.98998022079468,40.764555428060845],[-73.98982465267181,40.76449041994002],[-73.98981928825378,40.76449854595859],[-73.98997485637665,40.76456355407143],[-73.98998022079468,40.764555428060845]]]}},{"type":"Feature","properties":{"id":"36623764-6632-3038-B237-353738306234","building_id":"b29f6110-0d6d-4b40-bfe0-98e1220c3391","height":70,"min_height":0},"geometry":{"type":"Polygon","coordinates":[[[-73.99044156074524,40.76440509668495],[-73.99033427238464,40.764360403507624],[-73.99032890796661,40.76436852954211],[-73.99043619632721,40.764413222713955],[-73.99044156074524,40.76440509668495]]]}},{"type":"Feature","properties":{"id":"62643938-6461-3230-B063-353830333239","building_id":"b29f6110-0d6d-4b40-bfe0-98e1220c3391","height":49,"min_height":0},"geometry":{"type":"Polygon","coordinates":[[[-73.99043619632721,40.76423851287126],[-73.99019479751587,40.76413693717021],[-73.99017870426178,40.764161315352595],[-73.99042010307312,40.76425882799285],[-73.99043619632721,40.76423851287126]]]}},{"type":"Feature","properties":{"id":"61633566-3432-3236-B862-663861333131","building_id":"b29f6110-0d6d-4b40-bfe0-98e1220c3391","height":44,"min_height":0},"geometry":{"type":"Polygon","coordinates":[[[-73.98988902568817,40.76457980608973],[-73.98987293243408,40.76459605810405],[-73.98992121219635,40.764616373116326],[-73.98993194103241,40.76460012110698],[-73.98988902568817,40.76457980608973]]]}},{"type":"Feature","properties":{"id":"31316332-3732-3562-B536-396362393962","building_id":"b29f6110-0d6d-4b40-bfe0-98e1220c3391","height":67,"min_height":64},"geometry":{"type":"Polygon","coordinates":[[[-73.99033963680267,40.764303521238475],[-73.99036109447479,40.76427101706281],[-73.99019479751587,40.764201945636785],[-73.99016797542572,40.764234449846214],[-73.99033963680267,40.764303521238475]]]}},{"type":"Feature","properties":{"id":"61373937-3666-3032-B961-326637363462","building_id":"b29f6110-0d6d-4b40-bfe0-98e1220c3391","height":52,"min_height":0},"geometry":{"type":"Polygon","coordinates":[[[-73.99053275585175,40.76427914310821],[-73.99043619632721,40.76424257589608],[-73.99041473865509,40.764266954039755],[-73.99051129817963,40.76430758425931],[-73.99053275585175,40.76427914310821]]]}},{"type":"Feature","properties":{"id":"39373665-6666-3632-A135-356436636331","building_id":"b29f6110-0d6d-4b40-bfe0-98e1220c3391","height":10,"min_height":0},"geometry":{"type":"Polygon","coordinates":[[[-73.9904522895813,40.764218197743475],[-73.99021089076996,40.76412068504362],[-73.99020552635193,40.76412068504362],[-73.9904522895813,40.764218197743475]]]}},{"type":"Feature","properties":{"id":"32363931-3961-3364-A230-656136626533","building_id":"b29f6110-0d6d-4b40-bfe0-98e1220c3391","height":52,"min_height":0},"geometry":{"type":"Polygon","coordinates":[[[-73.99042546749115,40.764429474769],[-73.99031817913055,40.76438478160807],[-73.9903074502945,40.76439697065496],[-73.99041473865509,40.76444166380767],[-73.99042546749115,40.764429474769]]]}},{"type":"Feature","properties":{"id":"38663533-3165-3265-B161-313264373462","building_id":"b29f6110-0d6d-4b40-bfe0-98e1220c3391","height":61,"min_height":0},"geometry":{"type":"Polygon","coordinates":[[[-73.99008214473724,40.76412474807566],[-73.98997485637665,40.76427101706281],[-73.98999094963074,40.76427914310821],[-73.99006068706512,40.76418569352609],[-73.99013042449951,40.764218197743475],[-73.99017333984375,40.76416537838216],[-73.99008214473724,40.76412474807566]]]}},{"type":"Feature","properties":{"id":"37656461-3638-3464-B534-646232316663","building_id":"581cdc23-22d6-4fda-9390-e59bb84c40c7","height":20,"min_height":0},"geometry":{"type":"Polygon","coordinates":[[[-73.99197578430176,40.76612372970396],[-73.99187386035919,40.7660790376824],[-73.99179339408875,40.76619279913271],[-73.99189531803131,40.76623342817493],[-73.99197578430176,40.76612372970396]]]}},{"type":"Feature","properties":{"id":"65323733-6262-3262-B133-373333316334","building_id":"581cdc23-22d6-4fda-9390-e59bb84c40c7","height":81,"min_height":0},"geometry":{"type":"Polygon","coordinates":[[[-73.9920026063919,40.76589620637208],[-73.99192214012146,40.765863702975366],[-73.99187922477722,40.76592058390918],[-73.99183630943298,40.76590433221878],[-73.99185240268707,40.76588401760017],[-73.99183094501495,40.765875891750966],[-73.99164855480194,40.766131855522815],[-73.99179339408875,40.76619279913271],[-73.9920026063919,40.76589620637208]]]}},{"type":"Feature","properties":{"id":"64623934-3438-3931-A533-376266663438","building_id":"b29f6110-0d6d-4b40-bfe0-98e1220c3391","height":80,"min_height":0},"geometry":{"type":"Polygon","coordinates":[[[-73.99023234844208,40.76440103367008],[-73.99026989936829,40.764344151435694],[-73.99021089076996,40.76431977332035],[-73.99017333984375,40.764376655575575],[-73.99023234844208,40.76440103367008]]]}},{"type":"Feature","properties":{"id":"32396262-6666-3162-A339-376563363931","building_id":"2fdd67cf-56c1-4d99-a9fc-c8bc7f146d4b","height":17.3,"min_height":0},"geometry":{"type":"Polygon","coordinates":[[[-73.99671256542206,40.765026735035065],[-73.99714708328247,40.765209568737305],[-73.9974957704544,40.764730137070416],[-73.997061252594,40.76454323904298],[-73.99671256542206,40.765026735035065]]]}},{"type":"Feature","properties":{"id":"35336633-3235-3033-B965-366432326563","building_id":"ffbbb8e1-e6a3-46da-9a4e-fce62c17ceb4","height":1.5,"min_height":0},"geometry":{"type":"Polygon","coordinates":[[[-73.99288237094879,40.764673255117714],[-73.9928126335144,40.76464481412313],[-73.99267852306366,40.764827648876064],[-73.99234592914581,40.7646935701064],[-73.99227619171143,40.76479108196571],[-73.99271070957184,40.76497391631628],[-73.99288237094879,40.76473420006519],[-73.99285018444061,40.764717948084666],[-73.99288237094879,40.764673255117714]]]}},{"type":"Feature","properties":{"id":"33333436-3733-3665-A431-626132663664","building_id":"02e9711e-9630-4723-988a-7f9a3e963a32","height":6,"min_height":0},"geometry":{"type":"Polygon","coordinates":[[[-73.99522125720978,40.76479108196571],[-73.99521052837372,40.76478701897443],[-73.99525880813599,40.764717948084666],[-73.99526953697205,40.76472201108015],[-73.9953339099884,40.76463668812241],[-73.99521589279175,40.764587932097385],[-73.99503886699677,40.76482358588703],[-73.99515688419342,40.764876404725214],[-73.99522125720978,40.76479108196571]]]}},{"type":"Feature","properties":{"id":"61383433-6262-3438-A135-623633373439","building_id":"4a34d46d-e45a-4384-b7e2-89f4bf88ceec","height":24.2,"min_height":0},"geometry":{"type":"Polygon","coordinates":[[[-73.99023771286011,40.765453346224604],[-73.99052202701569,40.76506736479013],[-73.99038791656494,40.76501048312605],[-73.99010896682739,40.7653964648909],[-73.99023771286011,40.765453346224604]]]}},{"type":"Feature","properties":{"id":"37666130-3463-3563-B834-373564613731","building_id":"ffbbb8e1-e6a3-46da-9a4e-fce62c17ceb4","height":18,"min_height":0},"geometry":{"type":"Polygon","coordinates":[[[-73.99261951446533,40.7643116472799],[-73.99244248867035,40.76423851287126],[-73.99209380149841,40.764717948084666],[-73.99227619171143,40.76479108196571],[-73.99261951446533,40.7643116472799]]]}},{"type":"Feature","properties":{"id":"37333938-6533-3631-A466-616430366431","building_id":"fc27e1ad-d768-42f7-ae59-9fcd818e5035","height":90,"min_height":0},"geometry":{"type":"Polygon","coordinates":[[[-73.99202406406403,40.76512424640552],[-73.99193286895752,40.76525019838064],[-73.99197578430176,40.765266450230996],[-73.99193823337555,40.76532333167603],[-73.99194896221161,40.76532739463451],[-73.99188995361328,40.76540865375222],[-73.99205088615417,40.76547366097486],[-73.99223864078522,40.76521363170278],[-73.99202406406403,40.76512424640552]]]}},{"type":"Feature","properties":{"id":"35396630-3132-3639-B130-343831346133","building_id":"4a34d46d-e45a-4384-b7e2-89f4bf88ceec","height":17,"min_height":0},"geometry":{"type":"Polygon","coordinates":[[[-73.99016261100769,40.76519331687305],[-73.99003386497498,40.76536802420577],[-73.9902913570404,40.76547366097486],[-73.99042010307312,40.765298953919824],[-73.99044156074524,40.765307079839545],[-73.99058640003204,40.76510799452038],[-73.99056494235992,40.76509580560389],[-73.99057030677795,40.765087679658336],[-73.99031281471252,40.764977979296134],[-73.99021625518799,40.76511612046343],[-73.9902001619339,40.76510799452038],[-73.99014115333557,40.765185190939405],[-73.99016261100769,40.76519331687305]]]}},{"type":"Feature","properties":{"id":"32633639-6261-3432-B137-333338626238","building_id":"fc27e1ad-d768-42f7-ae59-9fcd818e5035","height":104.8,"min_height":0},"geometry":{"type":"Polygon","coordinates":[[[-73.99193286895752,40.76525019838064],[-73.99202406406403,40.76512424640552],[-73.99198114871979,40.76510393154848],[-73.992018699646,40.765051112891086],[-73.99200797080994,40.765047049915694],[-73.99206161499023,40.76496579035583],[-73.99190604686737,40.7649007826364],[-73.9917129278183,40.76516081313255],[-73.99193286895752,40.76525019838064]]]}},{"type":"Feature","properties":{"id":"39616264-6465-3435-B032-396166323564","building_id":"b29f6110-0d6d-4b40-bfe0-98e1220c3391","height":44,"min_height":0},"geometry":{"type":"Polygon","coordinates":[[[-73.99006068706512,40.76464887712308],[-73.99004459381104,40.76466919211924],[-73.9900928735733,40.76468544411168],[-73.99010360240936,40.76466919211924],[-73.99006068706512,40.76464887712308]]]}},{"type":"Feature","properties":{"id":"37343063-3133-3365-B463-646665396132","building_id":"ffbbb8e1-e6a3-46da-9a4e-fce62c17ceb4","height":31.2,"min_height":0},"geometry":{"type":"Polygon","coordinates":[[[-73.99310767650604,40.76456761707638],[-73.99268388748169,40.76438884462394],[-73.99257123470306,40.76454323904298],[-73.99300038814545,40.76472201108015],[-73.99310767650604,40.76456761707638]]]}},{"type":"Feature","properties":{"id":"64336263-3039-3566-A233-353938333738","building_id":"ffbbb8e1-e6a3-46da-9a4e-fce62c17ceb4","height":5,"min_height":0},"geometry":{"type":"Polygon","coordinates":[[[-73.9928126335144,40.76464481412313],[-73.99257123470306,40.76454323904298],[-73.99262487888336,40.76447010488923],[-73.99253368377686,40.76443353778214],[-73.99234592914581,40.7646935701064],[-73.99267852306366,40.764827648876064],[-73.9928126335144,40.76464481412313]]]}},{"type":"Feature","properties":{"id":"37323330-3339-3233-A536-336335633738","building_id":"b29f6110-0d6d-4b40-bfe0-98e1220c3391","height":41,"min_height":0},"geometry":{"type":"Polygon","coordinates":[[[-73.98988902568817,40.76457980608973],[-73.98979246616364,40.76453917603658],[-73.98977637290955,40.764555428060845],[-73.98987293243408,40.76459605810405],[-73.98988902568817,40.76457980608973]]]}},{"type":"Feature","properties":{"id":"30323337-3838-3834-B639-663230323836","building_id":"bc21e3b7-f08b-401f-bdc3-39861c9e81ff","height":10.3,"min_height":0},"geometry":{"type":"Polygon","coordinates":[[[-73.99668037891388,40.76462043611804],[-73.99676620960236,40.76449854595859],[-73.99653553962708,40.76440103367008],[-73.99644434452057,40.76452292400836],[-73.99668037891388,40.76462043611804]]]}},{"type":"Feature","properties":{"id":"65313333-3335-3032-A335-346363616634","building_id":"b29f6110-0d6d-4b40-bfe0-98e1220c3391","height":74,"min_height":0},"geometry":{"type":"Polygon","coordinates":[[[-73.99020552635193,40.764429474769],[-73.99019479751587,40.76442541175561],[-73.99016797542572,40.76446604187831],[-73.99011433124542,40.76444166380767],[-73.99006068706512,40.76451886100068],[-73.98993730545044,40.76447010488923],[-73.9900016784668,40.76438071859195],[-73.98994266986847,40.764356340490025],[-73.98987293243408,40.76445385284413],[-73.99003386497498,40.76451886100068],[-73.99002313613892,40.76453917603658],[-73.99002313613892,40.764555428060845],[-73.99008214473724,40.76457980608973],[-73.99010360240936,40.764575743085516],[-73.99020552635193,40.764429474769]]]}},{"type":"Feature","properties":{"id":"63313237-3039-3533-A361-633936333439","building_id":"9a403ce0-8170-48bb-b9ab-b015f2932997","height":10,"min_height":0},"geometry":{"type":"Polygon","coordinates":[[[-73.9952963590622,40.76411662201136],[-73.99511933326721,40.764356340490025],[-73.99543583393097,40.76449041994002],[-73.99578988552094,40.764002857007114],[-73.99547338485718,40.763872839620916],[-73.9952963590622,40.76411662201136]]]}},{"type":"Feature","properties":{"id":"65363764-3361-3164-A335-316265313637","building_id":"b29f6110-0d6d-4b40-bfe0-98e1220c3391","height":43,"min_height":0},"geometry":{"type":"Polygon","coordinates":[[[-73.99044692516327,40.76422226076954],[-73.99020552635193,40.76412068504362],[-73.99019479751587,40.76413693717021],[-73.99043619632721,40.76423851287126],[-73.99044692516327,40.76422226076954]]]}},{"type":"Feature","properties":{"id":"64383931-3436-3363-A232-333037633738","building_id":"581cdc23-22d6-4fda-9390-e59bb84c40c7","height":75,"min_height":0},"geometry":{"type":"Polygon","coordinates":[[[-73.99167001247406,40.76609935224138],[-73.99183094501495,40.765875891750966],[-73.99185240268707,40.76588401760017],[-73.99190068244934,40.765814947850515],[-73.99202406406403,40.76586776590082],[-73.9920026063919,40.76589620637208],[-73.99202942848206,40.765908395141736],[-73.9920723438263,40.76585151419749],[-73.99186313152313,40.76576212975817],[-73.99177730083466,40.76585151419749],[-73.99178802967072,40.765855577123716],[-73.991659283638,40.76609528933005],[-73.99167001247406,40.76609935224138]]]}},{"type":"Feature","properties":{"id":"34633062-6530-3461-B433-336433663661","building_id":"b29f6110-0d6d-4b40-bfe0-98e1220c3391","height":62,"min_height":0},"geometry":{"type":"Polygon","coordinates":[[[-73.98992657661438,40.76434821445403],[-73.98982465267181,40.76449041994002],[-73.98998022079468,40.764555428060845],[-73.98996412754059,40.764575743085516],[-73.99008214473724,40.76462449911952],[-73.99009823799133,40.764604184109714],[-73.99014115333557,40.76462043611804],[-73.99018943309784,40.76455136505513],[-73.99015188217163,40.76453511302989],[-73.99010896682739,40.76459199510083],[-73.98999094963074,40.76454323904298],[-73.99000704288483,40.764526987015785],[-73.98986220359802,40.76446604187831],[-73.98994266986847,40.764356340490025],[-73.98992657661438,40.76434821445403]]]}},{"type":"Feature","properties":{"id":"66396433-3264-3139-B532-333034363962","building_id":"02e9711e-9630-4723-988a-7f9a3e963a32","height":6,"min_height":3},"geometry":{"type":"Polygon","coordinates":[[[-73.99515688419342,40.764876404725214],[-73.99503886699677,40.76482358588703],[-73.99498522281647,40.76489671965186],[-73.99510860443115,40.76494547545036],[-73.99515688419342,40.764876404725214]]]}},{"type":"Feature","properties":{"id":"62363566-6361-3137-B665-386334303839","building_id":"b29f6110-0d6d-4b40-bfe0-98e1220c3391","height":77.5,"min_height":0},"geometry":{"type":"Polygon","coordinates":[[[-73.99016261100769,40.76427508008564],[-73.99011969566345,40.764331962379146],[-73.98995876312256,40.764266954039755],[-73.98990511894226,40.7643400884171],[-73.9900016784668,40.76438071859195],[-73.98993730545044,40.76447010488923],[-73.99006068706512,40.76451886100068],[-73.99011433124542,40.76444166380767],[-73.99016797542572,40.76446604187831],[-73.99019479751587,40.76442541175561],[-73.9902538061142,40.76444978983221],[-73.99027526378632,40.76442541175561],[-73.99028062820435,40.764429474769],[-73.99033963680267,40.76434821445403],[-73.99016261100769,40.76427508008564]]]}},{"type":"Feature","properties":{"id":"30343865-3238-3434-A266-303762663362","building_id":"fc27e1ad-d768-42f7-ae59-9fcd818e5035","height":112,"min_height":0},"geometry":{"type":"Polygon","coordinates":[[[-73.99194359779358,40.76523394652628],[-73.99198651313782,40.7651730020371],[-73.99197578430176,40.76516487610101],[-73.99199724197388,40.765128309376166],[-73.99190068244934,40.765087679658336],[-73.99187922477722,40.76511612046343],[-73.99186849594116,40.76511205749202],[-73.99182558059692,40.765168939069156],[-73.99187386035919,40.76518925390636],[-73.99186849594116,40.765201442805676],[-73.99194359779358,40.76523394652628]]]}},{"type":"Feature","properties":{"id":"62633836-3863-3566-B632-633666303233","building_id":"581cdc23-22d6-4fda-9390-e59bb84c40c7","height":12,"min_height":0},"geometry":{"type":"Polygon","coordinates":[[[-73.99204552173615,40.76594089851662],[-73.99198651313782,40.76591652098696],[-73.99187386035919,40.7660790376824],[-73.99197578430176,40.76612372970396],[-73.99204552173615,40.76602215688419],[-73.99199724197388,40.76600184230162],[-73.99204552173615,40.76594089851662]]]}},{"type":"Feature","properties":{"id":"64363362-3430-3438-A463-623933616162","building_id":"581cdc23-22d6-4fda-9390-e59bb84c40c7","height":83,"min_height":0},"geometry":{"type":"Polygon","coordinates":[[[-73.99185240268707,40.76588401760017],[-73.99183630943298,40.76590433221878],[-73.99187922477722,40.76592058390918],[-73.99192214012146,40.765863702975366],[-73.9920026063919,40.76589620637208],[-73.99202406406403,40.76586776590082],[-73.99190068244934,40.765814947850515],[-73.99185240268707,40.76588401760017]]]}},{"type":"Feature","properties":{"id":"61306264-3962-3535-A266-336262356130","building_id":"b29f6110-0d6d-4b40-bfe0-98e1220c3391","height":46,"min_height":0},"geometry":{"type":"Polygon","coordinates":[[[-73.99011433124542,40.76408005470981],[-73.99009823799133,40.76410036987983],[-73.99019479751587,40.76414100020125],[-73.99021089076996,40.76412068504362],[-73.99011433124542,40.76408005470981]]]}},{"type":"Feature","properties":{"id":"61313435-3931-3363-B364-343061623439","building_id":"02e9711e-9630-4723-988a-7f9a3e963a32","height":4,"min_height":0},"geometry":{"type":"Polygon","coordinates":[[[-73.99510324001312,40.76494141246852],[-73.99510860443115,40.76493734948642],[-73.99510324001312,40.76493328650409],[-73.99509787559509,40.76494141246852],[-73.99510324001312,40.76494141246852]]]}},{"type":"Feature","properties":{"id":"66306337-3362-3761-B030-626363643239","building_id":"b29f6110-0d6d-4b40-bfe0-98e1220c3391","height":71,"min_height":0},"geometry":{"type":"Polygon","coordinates":[[[-73.99002313613892,40.764555428060845],[-73.99002313613892,40.76453917603658],[-73.99003386497498,40.76451886100068],[-73.98987293243408,40.76445385284413],[-73.98986220359802,40.76446604187831],[-73.99000704288483,40.764526987015785],[-73.98999094963074,40.76454323904298],[-73.99002313613892,40.764555428060845]]]}},{"type":"Feature","properties":{"id":"33343665-6561-3237-B562-313665646332","building_id":"581cdc23-22d6-4fda-9390-e59bb84c40c7","height":84,"min_height":81},"geometry":{"type":"Polygon","coordinates":[[[-73.99187922477722,40.76592058390918],[-73.99186849594116,40.765936835595625],[-73.99194896221161,40.76596933895655],[-73.9920026063919,40.76589620637208],[-73.99192214012146,40.765863702975366],[-73.99187922477722,40.76592058390918]]]}},{"type":"Feature","properties":{"id":"65633638-3233-3136-B137-303934323439","building_id":"ffbbb8e1-e6a3-46da-9a4e-fce62c17ceb4","height":40,"min_height":0},"geometry":{"type":"Polygon","coordinates":[[[-73.99266242980957,40.76456355407143],[-73.99270534515381,40.76450667197619],[-73.99263560771942,40.7644782309103],[-73.99259805679321,40.76453511302989],[-73.99266242980957,40.76456355407143]]]}},{"type":"Feature","properties":{"id":"32386231-6137-3134-B164-393962386338","building_id":"b29f6110-0d6d-4b40-bfe0-98e1220c3391","height":47,"min_height":0},"geometry":{"type":"Polygon","coordinates":[[[-73.98981928825378,40.76449854595859],[-73.98979246616364,40.76453917603658],[-73.98993194103241,40.76460012110698],[-73.98992121219635,40.764616373116326],[-73.99004459381104,40.76466919211924],[-73.99006068706512,40.76464887712308],[-73.99010360240936,40.76466919211924],[-73.99013042449951,40.76463262512169],[-73.9900928735733,40.76461231011436],[-73.99008214473724,40.76462449911952],[-73.98996412754059,40.764575743085516],[-73.98997485637665,40.76456355407143],[-73.98981928825378,40.76449854595859]]]}},{"type":"Feature","properties":{"id":"62633866-3762-3662-B232-343463393935","building_id":"2fdd67cf-56c1-4d99-a9fc-c8bc7f146d4b","height":8,"min_height":0},"geometry":{"type":"Polygon","coordinates":[[[-73.99688959121704,40.76447010488923],[-73.9968091249466,40.76443760079502],[-73.99663746356964,40.76467731811596],[-73.99648189544678,40.76461231011436],[-73.99631023406982,40.76485608979246],[-73.99640679359436,40.76489671965186],[-73.99655163288116,40.76470169610016],[-73.99668574333191,40.764754515035236],[-73.99688959121704,40.76447010488923]]]}},{"type":"Feature","properties":{"id":"30316162-3562-3565-A562-616230366462","building_id":"9c0bacf6-d352-48c7-b88e-d9ada2bdb416","height":54,"min_height":0},"geometry":{"type":"Polygon","coordinates":[[[-73.99985074996948,40.76254420987647],[-73.99984002113342,40.76252795736045],[-73.9998185634613,40.76253202048983],[-73.99982392787933,40.76254827300488],[-73.99985074996948,40.76254420987647]]]}},{"type":"Feature","properties":{"id":"36383330-3534-3262-B865-663662303261","building_id":"9c0bacf6-d352-48c7-b88e-d9ada2bdb416","height":33,"min_height":0},"geometry":{"type":"Polygon","coordinates":[[[-73.99937331676483,40.76224760083309],[-73.9992606639862,40.76219477990574],[-73.99890661239624,40.7626782929822],[-73.9990246295929,40.76272705040813],[-73.9991694688797,40.76253202048983],[-73.99940013885498,40.76262953552052],[-73.99946451187134,40.76254420987647],[-73.99923384189606,40.762442631586],[-73.99937331676483,40.76224760083309]]]}},{"type":"Feature","properties":{"id":"66336236-6666-3531-B562-323162636566","building_id":"9c0bacf6-d352-48c7-b88e-d9ada2bdb416","height":47.9,"min_height":0},"geometry":{"type":"Polygon","coordinates":[[[-73.99989902973175,40.762467010389884],[-73.99985074996948,40.76253202048983],[-73.9999258518219,40.762564525515955],[-73.99997413158417,40.762495452316415],[-73.99989902973175,40.762467010389884]]]}},{"type":"Feature","properties":{"id":"61316634-6233-3964-A637-363032653239","building_id":"9c0bacf6-d352-48c7-b88e-d9ada2bdb416","height":28,"min_height":0},"geometry":{"type":"Polygon","coordinates":[[[-73.99798393249512,40.76166250514078],[-73.99792492389679,40.76163812604182],[-73.99789273738861,40.761678757868424],[-73.99795711040497,40.76170313695249],[-73.99798393249512,40.76166250514078]]]}},{"type":"Feature","properties":{"id":"66303134-3464-3235-A538-646232623536","building_id":"4d337ece-9200-4f0d-9806-576d530ccd25","height":32.1,"min_height":0},"geometry":{"type":"Polygon","coordinates":[[[-73.99907290935516,40.763332452134165],[-73.99921238422394,40.763206496524646],[-73.99937868118286,40.76306835138814],[-73.9988100528717,40.76282862826395],[-73.99863302707672,40.7630764775806],[-73.99883151054382,40.76316180254133],[-73.99879395961761,40.76321868578762],[-73.99907290935516,40.763332452134165]]]}},{"type":"Feature","properties":{"id":"62323362-3639-3632-A235-626436633431","building_id":"4d337ece-9200-4f0d-9806-576d530ccd25","height":15,"min_height":0},"geometry":{"type":"Polygon","coordinates":[[[-73.99883151054382,40.76316180254133],[-73.99863302707672,40.7630764775806],[-73.99859011173248,40.763129297807296],[-73.99879395961761,40.76321868578762],[-73.99883151054382,40.76316180254133]]]}},{"type":"Feature","properties":{"id":"33393433-3138-3437-A338-363933316230","building_id":"9c0bacf6-d352-48c7-b88e-d9ada2bdb416","height":28,"min_height":0},"geometry":{"type":"Polygon","coordinates":[[[-73.99763524532318,40.76211758001324],[-73.99759769439697,40.762101327392884],[-73.99758696556091,40.76212164316772],[-73.99761915206909,40.7621378957831],[-73.99763524532318,40.76211758001324]]]}},{"type":"Feature","properties":{"id":"31316561-3237-3861-A630-363930646638","building_id":"9c0bacf6-d352-48c7-b88e-d9ada2bdb416","height":47.9,"min_height":0},"geometry":{"type":"Polygon","coordinates":[[[-73.99989902973175,40.762467010389884],[-73.99962544441223,40.76234917942165],[-73.99959325790405,40.762393873951424],[-73.99934649467468,40.76228823228715],[-73.99923384189606,40.762442631586],[-73.99946451187134,40.76254420987647],[-73.99940013885498,40.76262953552052],[-73.9991694688797,40.76253202048983],[-73.99905145168304,40.76268641922235],[-73.9991694688797,40.76273517664231],[-73.99914264678955,40.76277580779828],[-73.99943768978119,40.76290176422398],[-73.99946451187134,40.76286925936279],[-73.99953424930573,40.76286925936279],[-73.99962544441223,40.762848943816465],[-73.99966835975647,40.76283269137494],[-73.99973273277283,40.76279206025373],[-73.99978637695312,40.76273517664231],[-73.9998185634613,40.76267422986177],[-73.99982929229736,40.76261328302533],[-73.9998185634613,40.76253202048983],[-73.99984002113342,40.76252795736045],[-73.99985074996948,40.76254420987647],[-73.99992048740387,40.76257265177],[-73.9999258518219,40.762564525515955],[-73.99985074996948,40.76253202048983],[-73.99989902973175,40.762467010389884]]]}},{"type":"Feature","properties":{"id":"62343138-6566-3634-B231-626666636163","building_id":"cf38872e-950b-46f2-9046-6ab68d1d9bef","height":15,"min_height":0},"geometry":{"type":"Polygon","coordinates":[[[-73.99560749530792,40.763113045434324],[-73.99546265602112,40.76305209900028],[-73.99533927440643,40.76322681196169],[-73.99548411369324,40.76328775823555],[-73.99560749530792,40.763113045434324]]]}},{"type":"Feature","properties":{"id":"30323133-6234-3763-A232-306266663638","building_id":"9c0bacf6-d352-48c7-b88e-d9ada2bdb416","height":28,"min_height":0},"geometry":{"type":"Polygon","coordinates":[[[-73.99890661239624,40.7626782929822],[-73.9992606639862,40.76219477990574],[-73.99798393249512,40.76166250514078],[-73.99795711040497,40.76170313695249],[-73.99789273738861,40.761678757868424],[-73.99759232997894,40.762097264237184],[-73.99763524532318,40.76211758001324],[-73.99761915206909,40.7621378957831],[-73.99890661239624,40.7626782929822]]]}},{"type":"Feature","properties":{"id":"34386534-3133-3765-B661-363539626432","building_id":"9c0bacf6-d352-48c7-b88e-d9ada2bdb416","height":43,"min_height":0},"geometry":{"type":"Polygon","coordinates":[[[-73.9991694688797,40.76273517664231],[-73.99905145168304,40.76268641922235],[-73.9990246295929,40.76272705040813],[-73.99914264678955,40.76277580779828],[-73.9991694688797,40.76273517664231]]]}},{"type":"Feature","properties":{"id":"37333166-3639-3032-A265-346632633564","building_id":"9c0bacf6-d352-48c7-b88e-d9ada2bdb416","height":43,"min_height":0},"geometry":{"type":"Polygon","coordinates":[[[-73.99962544441223,40.76234917942165],[-73.99937331676483,40.76224760083309],[-73.99934649467468,40.76228823228715],[-73.99959325790405,40.762393873951424],[-73.99962544441223,40.76234917942165]]]}},{"type":"Feature","properties":{"id":"34353932-6566-3662-B765-623561626335","building_id":"cf38872e-950b-46f2-9046-6ab68d1d9bef","height":10,"min_height":0},"geometry":{"type":"Polygon","coordinates":[[[-73.99533927440643,40.76322681196169],[-73.99523735046387,40.76336495676884],[-73.99507105350494,40.763295884401174],[-73.99494767189026,40.76346247057751],[-73.99526417255402,40.76359248876645],[-73.9953875541687,40.763425902916],[-73.99570405483246,40.763559984243074],[-73.99580597877502,40.76341777676626],[-73.99533927440643,40.76322681196169]]]}},{"type":"Feature","properties":{"id":"61333937-3266-3265-B436-326138663532","building_id":"9c0bacf6-d352-48c7-b88e-d9ada2bdb416","height":8,"min_height":0},"geometry":{"type":"Polygon","coordinates":[[[-73.99943768978119,40.76290176422398],[-73.99953961372375,40.762942395278145],[-73.99997413158417,40.76261328302533],[-73.99993121623993,40.76258077802305],[-73.99997413158417,40.76252389423078],[-73.99995803833008,40.7625157679708],[-73.99992048740387,40.76257265177],[-73.99985074996948,40.76254420987647],[-73.99982392787933,40.76254827300488],[-73.99982929229736,40.76261328302533],[-73.9998185634613,40.76267422986177],[-73.99978637695312,40.76273517664231],[-73.99970591068268,40.76281237581745],[-73.99966835975647,40.76283269137494],[-73.999582529068,40.76286113314501],[-73.99953424930573,40.76286925936279],[-73.99946451187134,40.76286925936279],[-73.99943768978119,40.76290176422398]]]}}]}