{"type":"FeatureCollection","features":[{"type":"Feature","properties":{"id":"30656639-3336-3666-B965-363537393033","building_id":"85d65f36-ba64-4c8e-a2a0-71616e0b866f","height":3.8,"min_height":0},"geometry":{"type":"Polygon","coordinates":[[[-73.93802046775818,40.8458875959727],[-73.93822431564331,40.84596875650956],[-73.93820822238922,40.84592006019935],[-73.93826186656952,40.84587542188359],[-73.93835306167603,40.84591194414418],[-73.93837451934814,40.845847015667005],[-73.93813848495483,40.845725274600795],[-73.93802046775818,40.8458875959727]]]}},{"type":"Feature","properties":{"id":"38396633-6337-3433-A463-656161613238","building_id":"85d65f36-ba64-4c8e-a2a0-71616e0b866f","height":4.9,"min_height":0},"geometry":{"type":"Polygon","coordinates":[[[-73.93835306167603,40.84591194414418],[-73.93826186656952,40.84587542188359],[-73.93820822238922,40.84592006019935],[-73.93822431564331,40.84596875650956],[-73.93832087516785,40.84600933674068],[-73.93835306167603,40.84591194414418]]]}}]}